"id","id_cliente","id_DefontanaClient","id_proyecto","id_distribuidora","id_externo","id_clienteFacturacion","id_anydesk","API","etapa","subEtapa","nombre","potencia","tipoPlanta","tipoCliente","sociedad","centroCosto","duracionContrato","numeroClienteInterno","direccion","latitud","longitud","tipoFacturacion","metodoCalculoTarifa","fechaActivacion","fechaFinContrato","numeroClienteDistribuidora","capex","costoOM","comunaSystep","zonaHoraria","capexVentas","tirVentas","tir","fechaFirmaPPA","fechaFirmaAnexo1","fechaCompraCliente","inicioGeneracion","fechaRecepcion","fechaInicioFacturacion","created_at","updated_at","deleted_at"
2,23,5036612,52,8,"100152",9,735476105,Huawei,Proyectos,Operación,AGRICOLA VALLES DEL SUR ANGOL 2,118680.000,Netbilling,Regulado,,EMPPRO121007000,16,"121007000","Camino Nipaco, Km. 10",-37.851600,-72.654700,BOLETA-FACTURA,regulado-netbilling,2022-01-01,2037-08-31,"10249351",87118.055,10.000,Los Ángeles-1,,,,,2020-05-22,2021-09-20,,2021-09-20,,2021-09-20,2021-07-07 20:18:20.126,2021-09-30 15:46:11.000,
3,178,5036073,5,1,c861ad39-0fe1-4590-a06f-d9dbd299c6ef,34,,SMA,Operaciones,Operación,AGRICOLA SANTA CARMEN VICUÑA,138600.000,Netbilling,Regulado,,EMPPRO111002000,16,"111002000","Santa Carmen S/N, Sector La Viñita",-30.028900,-70.717278,BOLETA-FACTURA,regulado-netbilling,2020-09-30,2036-04-30,"1156229",136859.298,12.300,Coquimbo,,,,,2018-08-21,2020-04-17,,2020-04-17,,2020-04-17,2021-07-07 20:18:20.126,2021-09-30 15:46:10.000,
4,17,5036619,2,1,"7463919",52,789040574,SMA,Operaciones,Operación,ALIFRUT RENGO,1004400.000,PMGD,Libre,,EMPPRO120001000,20,"120001000",Juan Egenau 1655,-34.396400,-70.872700,REPORTE,indexacion,2022-04-01,2042-03-31,,681399.362,10.000,Maipu,,,,,2020-11-17,,,2022-03-09,,2022-03-01,2021-07-07 20:18:20.126,2021-09-30 15:46:12.000,
5,23,5036613,8,1,"6315467",9,126105370,SMA,Operaciones,Operación,AGRICOLA VALLES DEL SUR TILAMA,299200.000,Netbilling,Regulado,,EMPPRO121008000,16,"121008000","Tilama Fundo La Pena S/N, Los Vilos",-32.084167,-71.187111,BOLETA-FACTURA,regulado-netbilling,2022-01-01,2038-03-31,"6239294",271979.278,11.000,Coquimbo,,,,,2020-05-22,,,2022-03-18,,2022-03-18,2021-07-07 20:18:20.126,2021-09-30 15:46:11.000,
6,23,5036609,11,11,"100130",9,899902425,Huawei,Proyectos,Operación,AGRICOLA VALLES DEL SUR SANTA ELENA 2,49880.000,Netbilling,Regulado,,EMPPRO121004000,16,"121004000","Fundo Santa Elena, General López",-38.739500,-72.355200,BOLETA-FACTURA,regulado-netbilling,2021-12-01,2037-08-31,"13269-5",59414.555,10.000,Los Ángeles-1,Etc/GMT+3,,,,2020-05-22,2021-08-26,,2021-08-26,,2021-08-26,2021-07-07 20:18:20.126,2021-09-30 15:46:11.000,
7,23,5036606,7,8,"100099",9,166139108,Huawei,Operaciones,Operación,AGRICOLA VALLES DEL SUR GORBEA LA FERIA,75680.000,Netbilling,Regulado,,EMPPRO121001000,16,"121001000",J. M. Carrera 695,-39.106700,-72.653700,BOLETA-FACTURA,regulado-netbilling,2021-12-01,2037-04-30,"10427050",61836.684,10.000,Osorno,,,,,2020-05-22,2021-03-19,,2021-03-19,,2021-03-19,2021-07-07 20:18:20.126,2021-09-30 15:46:11.000,
9,189,5039905,47,2,ff85bed8-8edb-4b04-91b5-b2ded9a16a2d,39,449013923,SMA,Operaciones,Operación,COLEGIO SAN IGNACIO EL BOSQUE,111300.000,Autoconsumo,Regulado,,EMPPRO103001000,20,"103001000",Avenida Pocuro 2801,-33.434086,-70.593969,BOLETA-FACTURA,regulado-autoconsumo,2017-11-08,2037-08-31,,130866.573,10.000,Pudahuel,,,,,2016-11-04,,,2017-08-17,,2017-08-16,2021-07-07 20:18:20.126,2021-07-07 20:18:20.126,
10,159,5038793,4,2,"18374249",15,716248004,AuroraVision,Operaciones,Operación,COLEGIO PATRICIO MEKIS BASICA,68970.000,Netbilling,Regulado,,EMPPRO106002000,20,"106002000",Rey Arturo,-33.510328,-70.775773,REPORTE,regulado-netbilling,2019-10-30,2039-06-30,"1081890-7",55481.159,12.000,Pudahuel,,,,,2018-06-19,2019-05-23,,2019-10-04,,2019-05-23,2021-07-07 20:18:20.126,2021-09-30 15:46:12.000,
11,184,298,51,1,"7937314",38,506983243,SMA,Operaciones,Operación,CONCHA Y TORO CONO SUR,601560.000,PMGD,Libre,,EMPPRO119012000,20,"119012000",Pisagua 312,-34.714361,-71.038778,BOLETA-FACTURA,indexacion,2022-05-23,2042-04-30,,313354.012,12.300,Vilcún,,,,,2020-12-18,,,2022-04-22,,2022-04-22,2021-07-07 20:18:20.127,2021-09-30 15:46:13.000,
12,1,331,10,1,"1493724",1,275356643,Sungrow,Operaciones,Operación,CONCHA Y TORO CACHAPOAL,1199560.000,Autoconsumo,Libre,,EMPPRO119009000,20,"119009000","RUTA H 66-G KM33​,5",-34.364111,-71.197733,BOLETA-FACTURA,indexacion,2022-10-13,2042-09-30,,743963.042,12.300,La Pintana,,,,,2020-12-18,,,2022-09-12,,2022-09-12,2021-07-07 20:18:20.127,2021-09-30 15:46:12.000,
13,1,329,6,1,"8867842",1,380472805,SMA,Operaciones,Operación,CONCHA Y TORO LOURDES,282730.000,PMGD,Libre,,EMPPRO119006000,20,"119006000","Rauquén S/N 20 Fundo Lourdes, Bodega Pencahue, Pencahue.",-35.445723,-71.810885,BOLETA-FACTURA,indexacion,2022-10-06,2042-09-30,,247728.110,11.000,Santiago,,,,,2020-12-18,,,2022-09-05,,2022-09-05,2021-07-07 20:18:20.126,2021-09-30 15:46:12.000,
14,158,5039931,48,2,"9a588a2a-9f96-4ed4-8014-6f94b35b5bd3",14,815473750,SMA,Operaciones,Operación,GLASSTECH RENCA,109200.000,Autoconsumo,Regulado,,EMPPRO104001000,20,"104001000",Jorge Hirmas 2592,-33.418930,-70.681134,BOLETA-FACTURA,regulado-autoconsumo,2017-12-01,2037-11-30,,210637.377,12.000,Pudahuel,,,,,2016-06-29,,,2017-07-13,,2017-07-13,2021-07-07 20:18:20.135,2021-09-30 15:46:13.000,
15,42,5039962,63,1,"100104",47,768462910,Huawei,Proyectos,Operación,HORTIFRUT LA SERENA,108540.000,Netbilling,Regulado,,EMPPRO107010000,16,"107010000","Parcela 151, Vegas Norte, Campo La Playa",-29.861417,-71.265861,BOLETA-OC,regulado-netbilling,2022-04-29,2038-03-31,"5810560",103829.634,12.300,Coquimbo,Etc/GMT+3,,,,2018-08-17,,,2022-03-29,,2022-03-29,2021-07-07 20:18:20.136,2021-09-30 15:46:15.000,
16,1,330,18,1,"1163383",1,922722488,Sungrow,Operaciones,Operación,CONCHA Y TORO NUEVA AURORA,180480.000,Autoconsumo,Libre,,EMPPRO119008000,20,"119008000",RUTA D-605,-30.689083,-71.237194,BOLETA-FACTURA,indexacion,2022-10-16,2042-09-30,,145001.905,11.000,Lo Barnechea,,,,,2020-12-18,,,2022-09-15,,2022-09-15,2021-07-07 20:18:20.136,2021-09-30 15:46:13.000,
18,165,5039928,50,4,"100096",21,541145382,Huawei,Operaciones,Operación,HORTIFRUT CURACO,87600.000,Netbilling,Regulado,,EMPPRO107014000,16,"107014000",Camino a Curaco Km. 3.8,-39.554583,-72.389519,BOLETA-OC,regulado-netbilling,2022-01-01,2037-08-31,"10863165",69997.394,10.000,Osorno,Etc/GMT+3,,,,2018-08-17,2021-07-14,,2021-08-05,,2021-07-14,2021-07-07 20:18:20.136,2021-09-30 15:46:14.000,
19,166,11850841,64,9,"100113",10,484741511,Huawei,Operaciones,Operación,HORTIFRUT EL PAMPINO,61320.000,Netbilling,Regulado,,EMPPRO107019000,16,"107019000",Carihue Lote Fundo La Piedra,-40.844527,-73.155600,BOLETA-OC,regulado-netbilling,2022-01-01,2037-08-31,"10067539",48520.137,10.000,Osorno,,,,,2018-08-17,2021-05-08,,2021-08-05,,2021-08-05,2021-07-07 20:18:20.136,2021-09-30 15:46:15.000,
21,163,5039920,55,3,"19775512",19,603669794,AuroraVision,Operaciones,Operación,HORTIFRUT MOLINA,175500.000,Netbilling,Regulado,,EMPPRO107007000,16,"107007000",Fundo Virquenco,-37.449613,-72.509725,BOLETA-OC,regulado-netbilling,2020-03-30,2035-11-30,"5230853",156440.268,10.000,Los Ángeles-1,,,,,2019-06-05,2019-11-29,,2019-12-10,,2019-11-29,2021-07-07 20:18:20.136,2021-09-30 15:46:15.000,
23,166,5039959,53,9,"100112",22,498406574,Huawei,Operaciones,Operación,HORTIFRUT EL AVELLANO 1,74520.000,Netbilling,Regulado,,EMPPRO107016000,16,"107016000",Sector Inia La Pampa Km. 949,-40.526731,-73.068328,BOLETA-OC,regulado-netbilling,2022-01-01,2037-06-30,"10063442",57711.490,10.000,Osorno,,,,,2018-08-17,2021-05-18,,2021-05-18,,2021-05-18,2021-07-07 20:18:20.136,2021-09-30 15:46:14.000,
24,161,5039963,54,8,"19571616",17,750760824,AuroraVision,Operaciones,Operación,HORTIFRUT ANGOL,152100.000,Netbilling,Regulado,,EMPPRO107002000,16,"107002000",Santa Rosa del Parque,-37.865710,-72.671150,BOLETA-OC,regulado-netbilling,2020-03-30,2035-07-31,"10414040",126403.781,10.000,Los Ángeles-1,,,,,2018-08-17,2019-12-09,,2019-09-11,,2019-09-12,2021-07-07 20:18:20.136,2021-09-30 15:46:14.000,
25,160,134,56,6,"100059",16,370228505,Huawei,Operaciones,Operación,HORTIFRUT TRANQUE SANTA TERESA,152760.000,Netbilling,Regulado,,EMPPRO107008000,16,"107008000","Parcela 88, sector El Tártaro – Lo Vicuña",-32.632656,-70.721960,BOLETA-FACTURA,regulado-netbilling,2021-02-28,2036-07-31,"909601-9",173656.801,10.000,Viña Del Mar-1,,,,,2018-08-17,2020-06-24,,2020-06-24,,2020-06-24,2021-07-07 20:18:20.136,2021-09-30 15:46:15.000,
26,165,5039926,60,8,"100070",21,,Huawei,Operaciones,Operación,HORTIFRUT LOS LAURELES SUELO,109500.000,Netbilling,Regulado,,EMPPRO107011000,16,"107011000",Camino a Colico Km.2,-39.006439,-72.251800,BOLETA-OC,regulado-netbilling,2022-01-01,2037-01-31,"10467785",83854.177,10.000,Los Ángeles-1,,,,,2018-08-17,2021-01-14,,2021-01-14,,2021-01-14,2021-07-07 20:18:20.136,2021-09-30 15:46:15.000,
27,164,5039961,62,1,"100076",20,350813821,Huawei,Operaciones,Operación,HORTIFRUT VILLARRICA,43800.000,Netbilling,Regulado,,EMPPRO107009000,16,"107009000",Sector Inia La Pampa Km. 949,-39.197778,-72.259778,BOLETA-OC,regulado-netbilling,2022-01-01,2037-01-31,"2717282",36242.485,10.000,Los Ángeles-1,,,,,2018-08-17,2020-09-12,,2020-12-09,,2020-12-09,2021-07-07 20:18:20.143,2021-09-30 15:46:16.000,
28,24,43,13,2,"4ec4ad1d-59cd-4532-ae36-de4dcf27c4d1",40,118242037,SMA,Operaciones,Operación,MARISTAS GESTA GRAJALES,7200.000,Netbilling,Regulado,,EMPPRO110015000,20,"110015000",Grajales 2176,-33.451736,-70.665825,BOLETA-FACTURA,regulado-netbilling,2022-01-01,2041-02-28,"539763-4",5479.473,10.000,Pudahuel,,,,,2019-01-10,2021-01-15,,2021-01-18,,2021-01-15,2021-07-07 20:18:20.144,2021-09-30 15:46:17.000,
29,173,5039906,17,6,"100055",29,955695250,Huawei,Operaciones,Operación,MARISTAS INSTITUTO SANTA MARIA,38860.000,Netbilling,Regulado,,EMPPRO110005000,20,"110005000",Caupolicán 988,-32.992701,-71.265895,BOLETA-FACTURA,regulado-netbilling,2020-11-30,2040-07-31,"243726-0",42215.801,11.000,Viña Del Mar-1,Etc/GMT+3,,,,2019-01-10,2020-05-15,,2020-05-15,,2020-05-15,2021-07-07 20:18:20.144,2021-07-07 20:18:20.144,
30,171,5039917,15,1,"100053",27,801642523,Huawei,Operaciones,Operación,MARISTAS INSTITUTO O HIGGINS,64000.000,Netbilling,Regulado,,EMPPRO110003000,20,"110003000",Estado 719,-34.174170,-70.742272,BOLETA-FACTURA,regulado-netbilling,2020-12-31,2040-05-31,"2890159",59668.250,12.000,Rancagua,,,,,2019-01-10,2020-06-05,,2020-05-06,,2020-05-06,2021-07-07 20:18:20.144,2021-09-30 15:46:17.000,
31,81,5039913,20,2,"100200",11,475742336,Huawei,Operaciones,Operación,MARISTAS INSTITUTO ALONSO DE ERCILLA,70470.000,Netbilling,Regulado,,EMPPRO110013000,20,"110013000",Santo Domingo 2145,-33.437726,-70.666612,BOLETA-FACTURA,regulado-netbilling,2022-09-12,2042-08-31,"1447927-9",62998.304,13.000,Pudahuel,,,,,2019-01-10,,,2022-08-12,,2022-08-12,2021-07-07 20:18:20.144,2021-09-30 15:46:17.000,
32,7,5045467,58,2,"2e1ceb21-356e-4239-8330-4dec0b79334f",3,247055064,SMA,Operaciones,Operación,LEMACO LA GRANJA,116030.000,Netbilling,Regulado,,EMPPRO109001000,20,"109001000",Santa Ana 0425,-33.524687,-70.629938,BOLETA-FACTURA,regulado-netbilling,2020-12-31,2039-12-31,"1107406-5",143297.516,10.000,San Bernardo,,,,,2018-05-11,2019-12-12,,2019-12-12,,2019-12-12,2021-07-07 20:18:20.144,2021-09-30 15:46:16.000,
33,177,5039916,12,1,"100105",33,774531111,Huawei,Operaciones,Operación,MARISTAS COLEGIO SAN MARCELINO CHAMPAGNAT,197700.000,Netbilling,Regulado,,EMPPRO110010000,20,"110010000",Millancura 13374,-33.589321,-70.616294,BOLETA-FACTURA,regulado-netbilling,2021-08-30,2041-01-31,"2375086",176157.770,10.000,San Bernardo,,,,,2019-01-11,2021-01-18,,2021-01-18,,2021-01-18,2021-07-07 20:18:20.144,2021-09-30 15:46:16.000,
34,22,35,23,2,"77c1d491-8c3a-4b8b-b4dc-e81bb5cd3112",42,652137598,SMA,Operaciones,Operación,MARISTAS SOTERO SANZ,11200.000,Netbilling,Regulado,,EMPPRO110014000,20,"110014000",Sotero Sanz 189,-33.423160,-70.617234,BOLETA-FACTURA,regulado-netbilling,2022-01-01,2041-08-31,"700748-5",9791.429,10.000,Pudahuel,,,,,2019-01-10,2021-09-16,,2021-09-16,,2021-09-16,2021-07-07 20:18:20.144,2021-07-07 20:18:20.144,
35,181,5044837,21,2,"87de41d1-25e0-44ff-a228-32f5ccff9b81",37,341678346,SMA,Operaciones,Operación,SANTANDER SAN JOAQUIN,20400.000,Autoconsumo,Regulado,,EMPPRO122001000,20,"122001000",Vicuña Mackenna 3195,-33.480779,-70.621526,REPORTE,regulado-autoconsumo,2022-01-01,2041-01-31,"1516434-4",15574.263,10.000,San Bernardo,,,,,2020-03-24,,,2021-02-18,,2021-03-05,2021-07-07 20:18:20.145,2021-07-07 20:18:20.145,
36,22,37,61,2,"20b55315-e276-4c17-b29f-5f4f56f1c49d",43,864914496,SMA,Operaciones,Operación,MARISTAS CASA GRAJALES,7200.000,Netbilling,Regulado,,EMPPRO110016000,20,"110016000",Grajales 2174,-33.451866,-70.665821,BOLETA-FACTURA,regulado-netbilling,2022-01-01,2041-07-31,"539760-k",5499.477,10.000,Pudahuel,,,,,2019-01-10,2021-06-19,,2021-09-19,,2021-06-19,2021-07-07 20:18:20.145,2021-07-07 20:18:20.145,
37,175,5039912,59,1,"100060",31,,Huawei,Operaciones,Operación,MARISTAS COLEGIO HERMANO FERNANDO,106530.000,Netbilling,Regulado,,EMPPRO110008000,20,"110008000",Av. Ricardo Lagos 4201,-20.282463,-70.086065,BOLETA-FACTURA,regulado-netbilling,2020-11-30,2040-07-31,"9494688",119340.783,12.300,Iquique,,,,,2019-01-10,2020-01-07,,2020-05-27,,2020-07-01,2021-07-07 20:18:20.144,2021-09-30 15:46:16.000,
38,181,5044839,16,2,"73274e78-f13e-4663-baa5-658f0fd8b654",37,264644358,SMA,Operaciones,Operación,SANTANDER LA DEHESA,6400.000,Autoconsumo,Regulado,,EMPPRO122003000,20,"122003000","Av. La Dehesa 1201, Local 106",-33.361103,-70.515609,BOLETA-FACTURA,regulado-autoconsumo,2022-01-01,2041-08-31,"1044791-7",7016.896,10.000,Pudahuel,,,,,2020-03-24,,,2021-08-20,,2021-08-24,2021-07-07 20:18:20.145,2021-07-07 20:18:20.145,
39,169,5039910,14,1,"21355883",25,481501855,AuroraVision,Operaciones,Operación,MARISTAS INSTITUTO SAN FERNANDO,120600.000,Netbilling,Regulado,,EMPPRO110001000,20,"110001000",Marcelino Champagnat 0180,-34.597476,-70.989906,BOLETA-FACTURA,regulado-netbilling,2020-07-30,2039-12-31,"1587092",98453.249,12.300,Rancagua,,,,,2019-01-10,2019-12-24,,2019-12-24,,2019-12-24,2021-07-07 20:18:20.145,2021-09-30 15:46:17.000,
41,157,5039954,26,2,"472e6492-098e-4e81-8a7e-65be06cc61ac",13,658389472,SMA,Operaciones,Operación,SODIMAC CD LO ESPEJO AMPLIACION,147840.000,Autoconsumo,Regulado,,EMPPRO101027000,20,"101027000",Lo Espejo 2700,-33.528807,-70.711328,BOLETA-OC-HES,regulado-autoconsumo,2020-07-30,2040-03-31,,104268.345,12.000,Pudahuel,,,,,2017-06-19,2020-03-01,,2020-03-23,,2020-03-01,2021-07-07 20:18:20.151,2021-09-30 15:46:19.000,
43,157,5039956,24,2,"12cf5d78-ee78-49db-97a2-32fde6fcef5d",13,381499953,SMA,Operaciones,Operación,SODIMAC CD LO ESPEJO S1,270480.000,Autoconsumo,Regulado,,EMPPRO101029000,20,"101029000",Lo Espejo 2700,-33.528807,-70.711328,BOLETA-OC-HES,regulado-autoconsumo,2020-07-30,2040-03-31,,190763.677,12.000,Pudahuel,,,,,2017-06-19,2020-03-01,,2020-03-23,,2020-03-01,2021-07-07 20:18:20.151,2021-09-30 15:46:19.000,
44,157,5039935,29,1,"28f380a9-67a1-459f-942c-87cf8bd132ae",13,693918214,SMA,Operaciones,Operación,SODIMAC HC SAN BERNARDO,510300.000,Autoconsumo,Regulado,,EMPPRO101003000,20,"101003000",Pdte Jorge Alessandri Rodríguez 20040,-33.631664,-70.710361,BOLETA-OC-HES,regulado-autoconsumo,2018-01-31,2038-10-31,,447709.815,10.000,San Bernardo,,,,,2017-06-19,2018-10-01,,2018-11-10,,2018-10-01,2021-07-07 20:18:20.151,2021-07-07 20:18:20.151,
45,157,5039938,35,1,ef1a8cb1-f009-4c1a-84a0-1beb09ad958c,13,813192734,SMA,Operaciones,Operación,SODIMAC HC MELIPILLA,303600.000,Autoconsumo,Regulado,,EMPPRO101006000,20,"101006000","Av, Vicuña Mackenna 1415",-33.679107,-71.184415,BOLETA-OC-HES,regulado-autoconsumo,2019-07-29,2039-04-30,,303051.272,12.000,Rancagua,,,,,2017-06-19,2019-04-01,,2019-02-28,,2019-04-01,2021-07-07 20:18:20.151,2021-09-30 15:46:20.000,
46,157,5039941,27,2,"1144298",13,853731922,SMA,Operaciones,Operación,SODIMAC HC SAN MIGUEL,428460.000,Autoconsumo,Regulado,,EMPPRO101009000,20,"101009000",Gran Avenida Jose Miguel Carrera 5508,-33.504360,-70.654091,BOLETA-OC-HES,regulado-autoconsumo,2019-09-30,2039-06-30,,386533.230,10.000,San Bernardo,,,,,2017-06-19,2019-07-01,,2019-07-23,,2019-07-01,2021-07-07 20:18:20.151,2021-09-30 15:46:21.000,
47,157,5039944,25,1,"56a24d00-0049-45c3-a2b3-4254caf6e458",13,729613924,SMA,Operaciones,Operación,SODIMAC HC OVALLE,360640.000,Autoconsumo,Regulado,,EMPPRO101012000,20,"101012000",Av. Benavente 01075,-30.598631,-71.182327,BOLETA-OC-HES,regulado-autoconsumo,2020-03-30,2039-08-31,,362670.027,12.300,Coquimbo,,,,,2017-06-19,2019-09-01,,2019-08-12,,2019-09-01,2021-07-07 20:18:20.151,2021-09-30 15:46:21.000,
48,157,5039958,34,8,"6594261",13,875034666,SMA,Operaciones,Operación,SODIMAC HC LOS PABLOS TEMUCO,311450.000,Autoconsumo,Regulado,,EMPPRO101031000,20,"101031000",Av. Los Estudiantes 2564,-38.742800,-72.640500,BOLETA-OC-HES,regulado-autoconsumo,2022-04-02,2042-03-31,,264636.508,12.300,Los Ángeles-1,,,,,2017-06-19,,,2021-07-20,,2022-03-02,2021-07-07 20:18:20.151,2021-09-30 15:46:21.000,
49,157,5039943,30,1,"9cd3d03c-924a-4df3-b3ae-c50e5680d666",13,917368775,SMA,Operaciones,Operación,SODIMAC HC PUENTE ALTO,154560.000,Autoconsumo,Regulado,,EMPPRO101011000,20,"101011000",Av. Concha Y Toro 1315,-33.601495,-70.575606,BOLETA-OC-HES,regulado-autoconsumo,2019-06-26,2039-07-31,,157893.144,10.000,San Bernardo,,,,,2017-06-19,2019-09-01,,2019-08-05,,2019-09-01,2021-07-07 20:18:20.151,2021-09-30 15:46:21.000,
52,157,5039946,33,2,caacb015-5ab1-4527-80ef-47eedf8ded7d,13,598955613,SMA,Operaciones,Operación,SODIMAC HC CERRILLOS,450800.000,Autoconsumo,Regulado,,EMPPRO101014000,20,"101014000",Américo Vespucio 1501,-33.517248,-70.717353,BOLETA-OC-HES,regulado-autoconsumo,2020-04-30,2040-02-29,,468983.832,10.000,Pudahuel,,,,,2017-06-19,2020-03-01,,2020-02-18,,2019-03-01,2021-07-07 20:18:20.151,2021-09-30 15:46:19.000,
53,157,5039952,38,2,"7076696",13,424648252,SMA,Operaciones,Operación,SODIMAC HC LA REINA,228490.000,Autoconsumo,Regulado,,EMPPRO101021000,20,"101021000","Jorge Alessandri 1347, La Reina",-33.462400,-70.544900,BOLETA-OC-HES,regulado-autoconsumo,2021-12-27,2041-11-30,,220968.900,10.000,Pudahuel,,,,,2017-06-19,,,2021-11-19,,2021-12-01,2021-07-07 20:18:20.158,2021-09-30 15:46:20.000,
55,157,5039947,19,2,"4737305",13,156522719,SMA,Operaciones,Operación,SODIMAC HC ÑUBLE,332640.000,Autoconsumo,Regulado,,EMPPRO101016000,20,"101016000",Vicuña Mackenna 1700,-33.465942,-70.626282,BOLETA-OC-HES,regulado-autoconsumo,2020-09-30,2040-05-31,,376968.734,10.000,Pudahuel,,,,,2017-06-19,2020-05-01,,2020-05-12,,2020-05-01,2021-07-07 20:18:20.159,2021-09-30 15:46:20.000,
56,16,5045468,42,1,"6232402",6,478462662,SMA,Operaciones,Operación,VIÑA BARON PHILIPPE DE ROTHSCHILD BUIN,300000.000,Netbilling,Regulado,,EMPPRO117001000,20,"117001000","Bellavista 773 Fundo Viña Maipo, lote A",-33.739216,-70.781635,BOLETA-FACTURA,regulado-netbilling,2021-03-30,2041-01-31,"1398661",219431.403,13.000,Rancagua,,,,,2020-01-08,2021-06-01,,2021-01-06,,2021-01-06,2021-07-07 20:18:20.159,2021-09-30 15:46:23.000,
57,13,5045464,45,1,"100075",4,989083653,Huawei,Operaciones,Operación,TERRAFERO TRANQUE,245220.000,Netbilling,Regulado,,EMPPRO115001000,25,"115001000",Sin Calle s/n Fundo la Cantera,-27.754306,-70.178158,REPORTE,regulado-netbilling,2021-04-30,2045-10-31,"9295790",247672.540,10.000,Copiapó,,,,,2019-12-23,2020-12-28,,2020-12-28,,2020-12-28,2021-07-07 20:18:20.159,2021-09-30 15:46:23.000,
58,119,5045458,40,1,NE=34107688,12,486398751,FusionSolar,Operaciones,Operación,SUBSOLE SITIO 1,72360.000,Netbilling,Regulado,,EMPPRO108002000,25,"108002000",Elisa de bordos s/n,-27.732528,-70.185083,REPORTE,regulado-netbilling,2020-12-31,2045-07-31,"9354225",85273.118,10.000,Copiapó,,,,,2019-03-25,2020-06-26,,2020-06-26,,2020-06-26,2021-07-07 20:18:20.159,2021-09-30 15:46:22.000,
59,179,176,44,5,"4420493",35,785272793,SMA,Operaciones,Operación,WATTS LINARES 1,503510.000,PMGD,Libre,,EMPPRO113001000,20,"113001000","Longitudinal Sur, Km 302",-35.851935,-71.631553,BOLETA-OC-HES,indexacion,2020-12-30,2050-05-01,,386596.380,12.300,Iquique,,,,,2019-06-10,2020-01-05,,2020-04-23,,2020-05-01,2021-07-07 20:18:20.159,2021-09-30 15:46:24.000,
60,182,5045459,37,1,NE=36642344,49,530507528,FusionSolar,Operaciones,Operación,SUBSOLE ISLA DE MAIPO,519860.000,PMGD,Libre,,EMPPRO108007000,25,"108007000",Balmaceda 6475,-33.724905,-70.858224,REPORTE,indexacion,2022-07-02,2047-06-30,,398522.471,13.000,Cunco,Etc/GMT+3,,,,2021-07-15,,,2022-05-30,,2022-06-01,2021-07-07 20:18:20.159,2021-07-07 20:18:20.159,
61,157,5039949,31,1,"6051e5eb-b63d-4c63-a332-5ba9f9071d32",13,361113920,SMA,Operaciones,Operación,SODIMAC HC EL BOSQUE,250470.000,Autoconsumo,Regulado,,EMPPRO101018000,20,"101018000",Gran Av. José Miguel Carrera 10375,-33.553297,-70.677586,BOLETA-OC-HES,regulado-autoconsumo,2020-12-31,2040-03-31,,245938.514,10.000,San Bernardo,,,,,2017-06-19,2016-04-01,,2020-09-23,,2020-04-01,2021-07-07 20:18:20.159,2021-09-30 15:46:20.000,
62,157,5039953,39,2,"6301947",13,732031159,SMA,Operaciones,Operación,SODIMAC ODA CARPORT,496080.000,Autoconsumo,Regulado,,EMPPRO101025000,20,"101025000",Panamericana Norte 3092,-33.399345,-70.686684,BOLETA-OC-HES,regulado-autoconsumo,2022-01-01,2041-05-31,,390424.786,10.000,Pudahuel,,,,,2017-06-19,2021-01-05,,2021-04-26,,2021-05-01,2021-07-07 20:18:20.159,2021-09-30 15:46:22.000,
63,180,5045463,46,6,"37fc8140-cce3-4f84-9dbd-f5c4b8c92706",36,844009244,SMA,Operaciones,Operación,TERMINAL LOGISTICO LAS CADENAS CURAUMA,115200.000,Netbilling,Regulado,,EMPPRO114001000,20,"114001000","Cerro el Altar #2821, Placilla",-33.133227,-71.550858,BOLETA-FACTURA,regulado-netbilling,2020-11-30,2040-06-30,"716682-6",105872.227,12.000,Viña Del Mar-1,,,,,2019-07-17,2020-03-06,,2020-06-03,,2020-06-03,2021-07-07 20:18:20.159,2021-09-30 15:46:23.000,
64,179,174,57,4,"6330439",35,221098572,SMA,Operaciones,Operación,WATTS OSORNO A,633640.000,PMGD,Libre,,EMPPRO113005000,25,"113005000",Panamericana Ruta 5 Sur km 921,-40.588689,-73.097314,BOLETA-OC-HES,indexacion,2021-10-01,2046-07-31,,413447.259,12.300,Purranque,,,,,2019-12-12,2021-01-04,,2021-04-01,,2021-04-01,2021-07-07 20:18:20.160,2021-09-30 15:46:24.000,
65,167,5045461,43,1,"100064",23,345742986,Huawei,Operaciones,Operación,SUBSOLE SITIO 3,148740.000,Netbilling,Regulado,,EMPPRO108004000,25,"108004000",Sector Los Loros S/N,-28.026399,-69.974230,REPORTE,regulado-netbilling,2020-12-31,2045-07-31,"9268762",166967.513,10.000,Copiapó,,,,,2019-03-25,2020-06-15,,2020-06-15,,2020-06-15,2021-07-07 20:18:20.159,2021-09-30 15:46:23.000,
67,2,380,110,2,"14887495",2,505490781,SMA,Operaciones,Operación,AIRBUS TOBALABA,158400.000,Netbilling,Regulado,,EMPPRO116001000,20,"116001000",Av. Alcalde Fernando Castilo Velasco 7941,-33.456958,-70.552383,BOLETA-FACTURA,regulado-netbilling,2021-11-01,2043-01-17,"3324881-4",131755.631,10.000,Pudahuel,,,,,2019-12-12,2020-10-11,,2020-12-04,,2020-11-10,2021-07-07 20:18:20.166,2021-09-30 15:46:11.000,
70,1,332,116,1,"7642995",1,621369717,SMA,Operaciones,Operación,CONCHA Y TORO CHIMBARONGO,359640.000,Autoconsumo,Libre,,EMPPRO119010000,20,"119010000",Pisagua 453,-34.715028,-71.035417,BOLETA-FACTURA,indexacion,2022-05-06,2042-04-30,,231099.677,12.300,Copiapó,,,,,2020-12-18,,,2022-04-05,,2022-04-05,2021-07-07 20:18:20.166,2021-09-30 15:46:13.000,
72,23,5036610,113,11,"100131",9,876764102,Huawei,Proyectos,Operación,AGRICOLA VALLES DEL SUR SANTA ELENA 3,117750.000,Netbilling,Regulado,,EMPPRO121005000,16,"121005000","Fundo Santa Elena, General López",-38.738400,-72.362100,BOLETA-FACTURA,regulado-netbilling,2021-12-01,2037-07-31,"14977-6",88646.931,10.000,Los Ángeles-1,,,,,2020-05-22,2021-06-24,,2021-06-24,,2021-06-24,2021-07-07 20:18:20.166,2021-09-30 15:46:11.000,
73,159,5038794,115,2,"06db6089-b2f8-48bd-8cbe-b6c8a5087c58",15,429836663,SMA,Operaciones,Operación,COLEGIO PATRICIO MEKIS MEDIA,44550.000,Netbilling,Regulado,,EMPPRO106003000,20,"106003000",Rey Arturo,-33.510328,-70.775773,REPORTE,regulado-netbilling,2019-10-30,2039-06-30,"937764-6",35837.112,12.000,Pudahuel,,,,,2018-06-19,2019-05-23,,2019-10-04,,2019-05-23,2021-07-07 20:18:20.166,2021-09-30 15:46:12.000,
74,21,5039909,85,6,"1b4f16af-8658-4a16-956a-a5de7a52ccc7",8,345797376,SMA,Operaciones,Operación,COLEGIO SUNNYLAND SAN FELIPE,70560.000,Autoconsumo,Regulado,,EMPPRO112001000,20,"112001000","Los Naranjos S/N, Lote 2, Camino Encón",-32.727973,-70.738169,BOLETA-FACTURA,regulado-autoconsumo,2019-04-18,2039-12-31,,65970.898,12.300,Viña Del Mar-1,,,,,2018-10-10,,,2020-01-22,,2020-01-21,2021-07-07 20:18:20.166,2021-09-30 15:46:12.000,
75,23,5036611,106,8,"100127",9,333442986,Huawei,Proyectos,Operación,AGRICOLA VALLES DEL SUR ANGOL 1,65360.000,Netbilling,Regulado,,EMPPRO121006000,16,"121006000","Camino Nipaco, Km. 10",-37.851600,-72.654700,BOLETA-FACTURA,regulado-netbilling,2022-01-01,2037-08-31,"10406298",57700.802,10.000,Los Ángeles-1,,,,,2020-05-22,2021-08-18,,2021-08-18,,2021-08-18,2021-07-07 20:18:20.166,2021-09-30 15:46:11.000,
76,23,5036607,94,8,"100098",9,786686811,Huawei,Operaciones,Operación,AGRICOLA VALLES DEL SUR GORBEA CARRERA,55040.000,Netbilling,Regulado,,EMPPRO121002000,16,"121002000",J.M. Carrera 695,-39.103500,-72.661500,BOLETA-FACTURA,regulado-netbilling,2021-12-01,2037-05-31,"10392805",88990.422,10.000,Osorno,,,,,2020-05-22,2021-04-14,,2021-04-14,,2021-04-14,2021-07-07 20:18:20.166,2021-09-30 15:46:11.000,
77,185,5107827,71,2,"100248",55,472648568,Huawei,Operaciones,Operación,AVIASUR PUDAHUEL,250560.000,Netbilling,Regulado,,EMPPRO124001000,20,"124001000",Aviador David Fuentes Nte. 2205,-33.391700,-70.792900,BOLETA-FACTURA,regulado-netbilling,2023-01-27,2042-12-31,"2925290-4",192481.534,10.000,Pudahuel,,,,,2021-05-05,,,2022-12-27,,2022-12-27,2021-07-07 20:18:20.166,2021-09-30 15:46:12.000,
78,23,5036608,114,11,"100129",9,562564510,Huawei,Operaciones,Operación,AGRICOLA VALLES DEL SUR SANTA ELENA 1,61920.000,Netbilling,Regulado,,EMPPRO121003000,16,"121003000","Fundo Santa Elena, General López",-38.735060,-72.350570,BOLETA-FACTURA,regulado-netbilling,2021-12-01,2037-07-31,"12730-6",51040.863,10.000,Los Ángeles-1,,,,,2020-05-22,2021-07-15,,2021-07-15,,2021-07-15,2021-07-07 20:18:20.167,2021-09-30 15:46:11.000,
79,18,5039932,111,1,NE=33791905,7,424520718,FusionSolar,Operaciones,Operación,ENEX SHELL MOSTAZAL,112050.000,Netbilling,Regulado,,EMPPRO123001000,20,"123001000",Panamericana Sur 80 O'Higgins,-33.971639,-70.707410,BOLETA-OC,regulado-netbilling,2022-02-26,2042-01-31,"5979838",86089.425,12.300,Rancagua,,,,,2021-02-03,,,2022-01-21,,2022-01-26,2021-07-07 20:18:20.172,2021-09-30 15:46:13.000,
80,165,5039927,104,8,NE=35661538,21,756660154,FusionSolar,Proyectos,Operación,HORTIFRUT LOS LAURELES PACKING,94900.000,Netbilling,Regulado,,EMPPRO107012000,16,"107012000",Camino a Colico Km.2,-39.006439,-72.251800,BOLETA-OC,regulado-netbilling,2022-01-01,2037-08-31,"10488227",76584.938,10.000,Los Ángeles-1,,,,,2018-08-17,,,2021-12-01,,2021-12-01,2021-07-07 20:18:20.173,2021-09-30 15:46:15.000,
82,163,5039919,100,3,"21506080",19,930917664,AuroraVision,Operaciones,Operación,HORTIFRUT MACLOVIO,175500.000,Netbilling,Regulado,,EMPPRO107005000,16,"107005000",Fundo Virquenco,-37.438955,-72.505592,BOLETA-OC,regulado-netbilling,2020-03-30,2035-12-31,"5228492",150474.921,10.000,Los Ángeles-1,,,,,2019-06-05,2019-12-21,,2019-12-23,,2019-12-21,2021-07-07 20:18:20.173,2021-09-30 15:46:15.000,
83,166,13201324,117,4,"100128",21,658747316,Huawei,Operaciones,Operación,HORTIFRUT RIO NEGRO,199290.000,Netbilling,Regulado,,EMPPRO107018000,16,"107018000",Sector Inia La Pampa Km. 949,-40.846510,-73.159068,BOLETA-OC,regulado-netbilling,2022-01-01,2037-08-31,"10858619",146931.894,10.000,Osorno,,,,,2018-08-17,2021-07-27,,2021-07-27,,2021-07-27,2021-07-07 20:18:20.173,2021-09-30 15:46:15.000,
84,1,328,109,1,"1180976",1,211674461,Sungrow,Operaciones,Operación,CONCHA Y TORO LONTUE,596640.000,PMGD,Libre,,EMPPRO119002000,20,"119002000",Fundo San Ignacio S/N,-35.063472,-71.271976,BOLETA-FACTURA,indexacion,2023-01-30,2042-12-31,,296920.236,11.000,Santiago,,,,,2022-12-18,,,2022-12-30,,2022-12-30,2021-07-07 20:18:20.174,2021-07-07 20:18:20.174,
85,165,282,93,3,"21506310",18,983912092,AuroraVision,Operaciones,Operación,HORTIFRUT VEGA LARGA,175500.000,Netbilling,Regulado,,EMPPRO107003000,16,"107003000",Fundo Virquenco,-37.420948,-72.504732,BOLETA-OC,regulado-netbilling,2020-03-30,2035-12-31,"5128463",141780.370,10.000,Los Ángeles-1,,,,,2018-08-17,2019-11-29,,2019-10-12,,2019-11-29,2021-07-07 20:18:20.174,2021-07-07 20:18:20.174,
86,166,5039960,103,9,NE=39740356,22,362387127,FusionSolar,Operaciones,Operación,HORTIFRUT EL AVELLANO 2,118260.000,Netbilling,Regulado,,EMPPRO107017000,16,"107017000",Sector Remehue Km. 8,-40.533500,-73.072772,BOLETA-OC,regulado-netbilling,2022-01-01,2037-08-31,"10060898",85282.573,10.000,Osorno,,,,,2018-08-17,2021-05-10,,2021-10-05,,2021-10-05,2021-07-07 20:18:20.173,2021-09-30 15:46:14.000,
88,160,5039918,92,1,"19532943",16,414628793,AuroraVision,Operaciones,Operación,HORTIFRUT CUREPTO,152100.000,Netbilling,Regulado,,EMPPRO107001000,16,"107001000",Agrícola Mataquito,-35.049165,-72.116902,BOLETA-OC,regulado-netbilling,2020-03-30,2035-08-31,"4146288",128580.045,10.000,Rancagua,,,,,2018-08-17,2021-10-07,,2019-06-21,,2019-07-10,2021-07-07 20:18:20.174,2021-09-30 15:46:14.000,
89,165,283,96,3,"21385813",18,152864416,AuroraVision,Operaciones,Operación,HORTIFRUT LA PUNTILLA,83200.000,Netbilling,Regulado,,EMPPRO107004000,16,"107004000",Carihue Lote Fundo La Piedra,-37.432670,-72.512081,BOLETA-OC,regulado-netbilling,2020-03-30,2035-12-31,"5155231",70272.715,10.000,Los Ángeles-1,,,,,2018-08-17,2019-11-29,,2019-12-10,,2019-11-29,2021-07-07 20:18:20.173,2021-07-07 20:18:20.173,
90,165,284,105,3,"21506467",18,910179541,AuroraVision,Operaciones,Operación,HORTIFRUT CASETA RIEGO,175500.000,Netbilling,Regulado,,EMPPRO107006000,16,"107006000",Fundo Virquenco,-37.429344,-72.521433,BOLETA-OC,regulado-netbilling,2020-03-30,2035-12-31,"5077923",153153.752,10.000,Los Ángeles-1,,,,,2018-08-17,2019-12-21,,2019-12-23,,2019-12-21,2021-07-07 20:18:20.174,2021-07-07 20:18:20.174,
92,165,5039929,101,4,NE=45854504,21,847151885,FusionSolar,Operaciones,Operación,HORTIFRUT VISTA HERMOSA,328500.000,Netbilling,Regulado,,EMPPRO107015000,16,"107015000",Camino a Panguipulli Km. 11,-39.630692,-72.342823,BOLETA-OC,regulado-netbilling,2022-01-01,2037-08-31,"10915590",258180.275,10.000,Osorno,,,,,2018-08-17,2021-07-22,,2021-07-22,,2021-07-22,2021-07-07 20:18:20.180,2021-09-30 15:46:16.000,
93,183,5045466,86,1,d7061355-b3bc-4314-be39-22cfe444d49c,50,465787065,GoodWe,Operaciones,Operación,RR WINE SAGRADA FAMILIA,501300.000,PMGD,Libre,,EMPPRO118001000,20,"118001000","Fundo Sanatorio #292 SE S/E, Sagrada Familia, Pulmodón, VII región.",-35.052901,-71.330692,REPORTE,indexacion,2022-04-11,2042-03-31,,300877.070,12.000,Los Angeles,,,,,2020-10-27,,,2022-03-10,,2022-03-11,2021-07-07 20:18:20.181,2021-07-07 20:18:20.181,
95,81,5039914,89,2,"9d600b85-ac1c-4142-9819-b385c0f4e58f",11,589753403,SMA,Operaciones,Operación,MARISTAS ESTADIO ALONSO DE ERCILLA,73030.000,Netbilling,Regulado,,EMPPRO110006000,20,"110006000",Av. Portales 3820,-33.445100,-70.686700,BOLETA-FACTURA,regulado-netbilling,2021-11-01,2040-07-31,"4454-7",65900.944,12.000,Pudahuel,,,,,2019-01-10,2020-08-07,,2020-07-08,,2020-07-08,2021-07-07 20:18:20.181,2021-09-30 15:46:16.000,
96,170,5039907,102,6,NE=36681060,26,126737712,FusionSolar,Operaciones,Operación,MARISTAS COLEGIO CHAMPAGNAT,58290.000,Netbilling,Regulado,,EMPPRO110002000,20,"110002000",Marcelino Champagnat 270,-33.047260,-71.366673,BOLETA-FACTURA,regulado-netbilling,2020-11-30,2040-06-30,"932838-6",64621.047,11.000,Viña Del Mar-1,,,,,2019-01-10,2020-05-15,,2020-05-15,,2020-05-15,2021-07-07 20:18:20.181,2021-07-07 20:18:20.181,
98,22,38,107,2,cf9e8091-2f63-4b25-8de4-dd968d19a443,44,385960669,SMA,Operaciones,Operación,MARISTAS CASA CEM,57600.000,Netbilling,Regulado,,EMPPRO110017000,20,"110017000","Nueva Bilbao 9602, Las Condes",-33.438484,-70.538392,BOLETA-FACTURA,regulado-netbilling,2022-01-01,2041-07-31,"175843-8",47412.823,10.000,Pudahuel,,,,,2019-01-10,2021-09-28,,2021-08-13,,2021-09-28,2021-07-07 20:18:20.181,2021-09-30 15:46:16.000,
99,172,5039908,88,6,"100057",28,609073036,Huawei,Operaciones,Operación,MARISTAS INSTITUTO RAFAEL ARIZTIA,103180.000,Netbilling,Regulado,,EMPPRO110004000,20,"110004000",O'Higgins 500,-32.883408,-71.247038,BOLETA-FACTURA,regulado-netbilling,2020-12-31,2040-05-31,"638111-1",95483.139,11.000,Viña Del Mar-1,,,,,2019-01-10,2020-05-15,,2020-05-15,,2020-05-15,2021-07-07 20:18:20.181,2021-07-07 20:18:20.181,
100,22,36,84,2,"1f7b1b18-ad21-4b56-9a74-b2274103e2a0",45,584845226,SMA,Operaciones,Operación,MARISTAS OFICINA SANTA MONICA,21600.000,Netbilling,Regulado,,EMPPRO110011000,20,"110011000",Santa Mónica 2056,-33.444352,-70.666725,BOLETA-FACTURA,regulado-netbilling,2022-01-01,2041-07-31,"185645-6",18803.680,10.000,Pudahuel,,,,,2019-01-10,2021-01-15,,2021-01-15,,2021-01-15,2021-07-07 20:18:20.181,2021-07-07 20:18:20.181,
101,174,5039911,81,6,"100077",30,722915736,Huawei,Operaciones,Operación,MARISTAS INSTITUTO CHACABUCO,99830.000,Netbilling,Regulado,,EMPPRO110007000,20,"110007000",Av. Argentina 201,-32.830118,-70.594795,BOLETA-FACTURA,regulado-netbilling,2021-04-30,2040-08-31,"630195-9",99728.245,12.300,Viña Del Mar-1,Etc/GMT+3,,,,2019-01-10,2020-07-27,,2020-07-24,,2020-07-27,2021-07-07 20:18:20.182,2021-09-30 15:46:17.000,
102,181,5044838,77,2,"09091456-3e3f-4cbe-8eb4-7992a5df939e",37,944487644,SMA,Operaciones,Operación,SANTANDER PANAMERICANA NORTE,12000.000,Autoconsumo,Regulado,,EMPPRO122002000,20,"122002000",Panamericana Norte 1780,-33.407355,-70.680766,REPORTE,regulado-autoconsumo,2022-01-01,2041-01-31,"844136",9170.907,10.000,Pudahuel,,,,,2020-03-24,,,2021-02-09,,2021-02-26,2021-07-07 20:18:20.181,2021-07-07 20:18:20.181,
103,176,5039915,99,1,"100102",32,865332362,Huawei,Operaciones,Operación,MARISTAS COLEGIO NUESTRA SEÑORA DE ANDACOLLO,136000.000,Netbilling,Regulado,,EMPPRO110009000,20,"110009000",Av Isidoro Campana 2878,-29.868481,-71.237389,BOLETA-FACTURA,regulado-netbilling,2022-01-01,2041-01-31,"1164232",121263.083,12.300,Coquimbo,,,,,2019-01-10,2021-06-01,,2021-01-06,,2021-01-06,2021-07-07 20:18:20.182,2021-09-30 15:46:16.000,
104,24,42,79,1,"3758dbf6-607c-4453-8b9e-d7f98ad749a6",41,896984433,SMA,Operaciones,Operación,MARISTAS GESTA LA PINTANA,6400.000,Netbilling,Regulado,,EMPPRO110018000,20,"110018000",Miguel Ángel 03141,-33.586675,-70.620022,BOLETA-FACTURA,regulado-netbilling,2022-01-01,2041-01-31,"2480984",4861.267,10.000,San Bernardo,,,,,2019-01-10,2020-12-15,,2020-12-30,,2020-12-15,2021-07-07 20:18:20.183,2021-09-30 15:46:17.000,
105,157,5039955,83,2,"9c99d9f9-11bd-450b-a8a7-7e321c82ca00",13,727321761,SMA,Operaciones,Operación,SODIMAC CD LO ESPEJO BATERIAS,147840.000,Autoconsumo,Regulado,,EMPPRO101028000,20,"101028000",Lo Espejo 2700,-33.528807,-70.711328,BOLETA-OC-HES,regulado-autoconsumo,2020-07-30,2040-03-31,,104268.345,12.000,Pudahuel,,,,,2017-06-19,2020-03-01,,2020-03-23,,2020-03-01,2021-07-07 20:18:20.186,2021-09-30 15:46:19.000,
106,157,5039951,87,1,b3e1041a-c6b4-4f37-aa2a-8900c90e57c7,13,427682009,Fronius,Operaciones,Operación,SODIMAC HC ANTOFAGASTA,221920.000,Autoconsumo,Regulado,,EMPPRO101020000,20,"101020000",Sierra Nevada 10488,-23.566521,-70.390068,BOLETA-OC-HES,regulado-autoconsumo,2021-08-30,2041-01-31,,203437.379,12.300,Copiapó,,,,,2017-06-19,2020-01-01,,2020-12-22,,2020-01-01,2021-07-07 20:18:20.187,2021-09-30 15:46:19.000,
108,157,5039934,67,1,"28f380a9-67a1-459f-942c-87cf8bd132ae",13,693918214,SMA,Operaciones,Operación,SODIMAC HC SAN BERNARDO PILOTO,110000.000,Autoconsumo,Regulado,,EMPPRO101002000,20,"101002000",Pdte Jorge Alessandri Rodríguez 20040,-33.631664,-70.710361,BOLETA-OC-HES,regulado-autoconsumo,2016-05-31,2036-04-30,,230969.412,10.000,San Bernardo,,,,,2017-06-19,2016-04-01,,2016-09-23,,2016-04-01,2021-07-07 20:18:20.187,2021-09-30 15:46:21.000,
110,157,5039937,118,1,"17194951",13,793966921,AuroraVision,Operaciones,Operación,SODIMAC HC TALAGANTE,275940.000,Autoconsumo,Regulado,,EMPPRO101005000,20,"101005000",Libertador Bernardo O'Higgins 2320,-33.669800,-70.942276,BOLETA-OC-HES,regulado-autoconsumo,2019-04-30,2039-03-31,,263391.525,13.000,San Bernardo,,,,,2017-06-19,2019-01-01,,2019-04-24,,2019-01-01,2021-07-07 20:18:20.188,2021-09-30 15:46:21.000,
111,157,5039957,69,2,"88313c1c-5397-4ad7-bae2-144d2f66a09c",13,381499953,SMA,Operaciones,Operación,SODIMAC CD LO ESPEJO S2,360640.000,Autoconsumo,Regulado,,EMPPRO101030000,20,"101030000",Lo Espejo 2700,-33.528807,-70.711328,BOLETA-OC-HES,regulado-autoconsumo,2020-07-30,2040-03-31,,254351.569,12.000,Pudahuel,,,,,2017-06-19,2020-03-01,,2020-03-23,,2020-03-01,2021-07-07 20:18:20.188,2021-09-30 15:46:19.000,
112,157,5039939,78,2,"15946511",13,477265035,SMA,Operaciones,Operación,SODIMAC HC NUEVA LA FLORIDA,567000.000,Autoconsumo,Regulado,,EMPPRO101007000,20,"101007000",José Pedro Alessandri 6402,-33.508575,-70.587837,BOLETA-OC-HES,regulado-autoconsumo,2019-08-30,2039-04-30,,664699.587,12.000,San Bernardo,,,,,2017-06-19,2019-04-01,,2018-04-12,,2019-04-01,2021-07-07 20:18:20.187,2021-09-30 15:46:20.000,
113,157,5039933,70,1,"6f8e947e-3993-422d-bd6a-0c175d8f4959",13,341378538,SMA,Operaciones,Operación,SODIMAC HC COPIAPO,111300.000,Autoconsumo,Regulado,,EMPPRO101001000,20,"101001000",Los Carrera 4723,-27.398004,-70.294047,BOLETA-OC-HES,regulado-autoconsumo,2016-11-30,2036-09-30,,210397.525,11.000,Copiapó,,,,,2017-06-19,2016-04-01,,2016-05-04,,2016-04-01,2021-07-07 20:18:20.187,2021-09-30 15:46:20.000,
114,157,5039936,120,1,"64d35803-287b-41d6-8198-d059e7db83e8",13,775396438,SMA,Operaciones,Operación,SODIMAC HC TOBALABA,393800.000,Autoconsumo,Regulado,,EMPPRO101004000,20,"101004000",Camilo Henríquez 3692,-33.568951,-70.559084,BOLETA-OC-HES,regulado-autoconsumo,2019-04-30,2039-01-31,,378679.232,12.000,San Bernardo,,,,,2017-06-19,2019-01-01,,2019-02-26,,2019-01-01,2021-07-07 20:18:20.188,2021-09-30 15:46:22.000,
115,157,5039950,90,2,"5846642",13,406852740,SMA,Operaciones,Operación,SODIMAC HC PLAZA VESPUCIO,307980.000,Autoconsumo,Regulado,,EMPPRO101019000,20,"101019000",Americo Vespucio 7310,-33.519635,-70.593949,BOLETA-OC-HES,regulado-autoconsumo,2020-11-30,2040-09-30,,229112.175,12.000,San Bernardo,,,,,2017-06-19,2020-09-01,,2020-09-08,,2020-09-01,2021-07-07 20:18:20.187,2021-09-30 15:46:21.000,
117,157,5039942,75,2,"48f6e90f-2969-4b74-aa9f-8f73cba69eb7",13,834602552,SMA,Operaciones,Operación,SODIMAC HC QUILICURA,222420.000,Autoconsumo,Regulado,,EMPPRO101010000,20,"101010000",Manuel Antonio Matta 581,-33.365592,-70.727176,BOLETA-OC-HES,regulado-autoconsumo,2019-10-30,2040-03-31,,226856.457,12.000,Pudahuel,,,,,2017-06-19,2019-08-01,,2019-08-06,,2019-08-01,2021-07-07 20:18:20.188,2021-09-30 15:46:21.000,
118,157,5039948,76,2,"4685918",13,425015855,SMA,Operaciones,Operación,SODIMAC HC MAIPU,364080.000,Autoconsumo,Regulado,,EMPPRO101017000,20,"101017000",Av. Los Pajaritos 4444,-33.482655,-70.749004,BOLETA-OC-HES,regulado-autoconsumo,2020-07-30,2040-05-31,,312115.361,13.000,Pudahuel,,,,,2017-06-19,2020-04-01,,2020-05-15,,2020-04-01,2021-07-07 20:18:20.193,2021-09-30 15:46:20.000,
119,157,5039945,73,2,"2975119",13,511581874,SMA,Operaciones,Operación,SODIMAC HC HUECHURABA,314930.000,Autoconsumo,Regulado,,EMPPRO101013000,20,"101013000",Americo Vespucio Norte 1737,-33.366153,-70.678308,BOLETA-OC-HES,regulado-autoconsumo,2020-04-30,2040-01-31,,315881.263,10.000,Pudahuel,,,,,2017-06-19,2020-03-01,,2020-03-03,,2020-03-01,2021-07-07 20:18:20.194,2021-09-30 15:46:20.000,
120,179,172,128,1,"6162087",35,523863327,SMA,Operaciones,Operación,WATTS LONQUEN,1001290.000,PMGD,Libre,,EMPPRO113003000,20,"113003001",Camino a Lonquén 12021,-33.543462,-70.742070,BOLETA-FACTURA,indexacion,2021-03-30,2050-12-01,,736273.603,10.000,Puente Alto,,,,,2019-06-10,2021-01-02,,2021-02-01,,2021-02-01,2021-07-07 20:18:20.194,2021-09-30 15:46:24.000,
121,167,5045460,125,1,"100058",23,921508534,Huawei,Operaciones,Operación,SUBSOLE SITIO 2,72360.000,Netbilling,Regulado,,EMPPRO108003000,25,"108003000",Sector Manflas S/N,-28.026399,-69.974230,REPORTE,regulado-netbilling,2020-12-31,2045-07-31,"9492847",86289.096,10.000,Copiapó,,,,,2019-03-25,2020-05-18,,2020-05-18,,2020-05-18,2021-07-07 20:18:20.194,2021-09-30 15:46:23.000,
122,168,5045456,127,1,"100066",24,955644335,Huawei,Operaciones,Operación,SUBSOLE FRIGORIFICO LA CANTERA,198990.000,Netbilling,Regulado,,EMPPRO108006000,25,"108006000","Sector Las Canteras S/N II, Parcela 18B",-27.757830,-70.170000,REPORTE,regulado-netbilling,2020-12-31,2045-09-30,"9191066",234559.318,10.000,Copiapó,,,,,2019-03-25,2020-11-08,,2020-08-11,,2020-08-11,2021-07-07 20:18:20.194,2021-09-30 15:46:22.000,
123,179,177,130,1,"5984168",35,475439956,SMA,Operaciones,Operación,WATTS SAN BERNARDO,1026600.000,PMGD,Libre,,EMPPRO113002000,20,"113002000",Presidente Jorge Alessandri Rodríguez 10501,-33.550241,-70.701458,BOLETA-OC-HES,indexacion,2020-12-31,2050-11-09,,801525.479,10.000,Tierra Amarilla,,,,,2019-06-10,2020-09-11,,2020-11-09,,2020-11-09,2021-07-07 20:18:20.194,2021-09-30 15:46:24.000,
124,167,5045462,124,1,NE=34108688,23,927358102,FusionSolar,Operaciones,Operación,SUBSOLE SITIO 4,217080.000,Netbilling,Regulado,,EMPPRO108005000,25,"108005000",Sector Pozo 1,-28.012079,-69.972510,REPORTE,regulado-netbilling,2020-12-31,2045-07-31,"9317884",224553.580,10.000,Copiapó,,,,,2019-03-25,2020-06-26,,2020-06-26,,2020-06-26,2021-07-07 20:18:20.194,2021-09-30 15:46:23.000,
125,119,5045457,119,1,,12,712840129,Fronius,Operaciones,Operación,SUBSOLE PMGD HORNITOS,322560.000,PMGD,Libre,,EMPPRO108001000,16,"108001000","C-533, Hornitos",-27.730707,-70.189358,LIBRE,indexacion,2019-12-06,2046-01-31,,322560.000,10.000,Tierra Amarilla,,,,,2019-03-25,,,2020-05-01,,2019-12-01,2021-07-07 20:18:20.194,2021-09-30 15:46:22.000,
126,13,5045465,123,1,"100074",4,341667840,Huawei,Operaciones,Operación,TERRAFERO SITIO 1,315600.000,Netbilling,Regulado,,EMPPRO115002000,25,"115002000",Sin Calle s/n Fundo la Cantera,-27.754306,-70.178158,REPORTE,regulado-netbilling,2021-04-30,2045-10-31,"9376498",339322.600,10.000,Copiapó,Etc/GMT+3,,,,2019-12-23,2020-12-28,,2020-12-28,,2020-12-28,2021-07-07 20:18:20.194,2021-09-30 15:46:23.000,
128,179,173,126,1,"6313429",51,144025403,SMA,Operaciones,Operación,WATTS CHILLAN,565180.000,PMGD,Libre,,EMPPRO113004000,20,"113004001",Longitudinal sur 01077,-36.587341,-72.104458,BOLETA-FACTURA,indexacion,2021-12-01,2050-12-23,,379885.558,11.000,San Bernardo,,,,,2019-06-10,2021-03-23,,2021-03-23,,2021-03-23,2021-07-07 20:18:20.195,2021-09-30 15:46:23.000,
129,157,5039940,66,2,"1f1acac2-5a9d-4316-bc2b-3238846ed547",13,455962748,SMA,Operaciones,Operación,SODIMAC HC ÑUÑOA,289800.000,Autoconsumo,Regulado,,EMPPRO101008000,20,"101008000",Av. Américo Vespucio 925,-33.463028,-70.575402,BOLETA-OC-HES,regulado-autoconsumo,2019-08-30,2039-05-31,,255349.430,12.000,Pudahuel,,,,,2017-06-19,2019-03-01,,2019-04-03,,2019-03-01,2021-07-07 20:18:20.194,2021-09-30 15:46:20.000,
130,14,5045455,129,1,"18275125",5,771969332,AuroraVision,Operaciones,Operación,UNIVERSIDAD VIÑA DEL MAR RODELILLO,112200.000,Autoconsumo,Regulado,,EMPPRO105001000,20,"105001000",Agua Santa 7055,-33.070982,-71.552785,BOLETA-FACTURA,regulado-autoconsumo,2019-09-30,2039-07-31,,93388.334,12.300,Viña Del Mar-1,,,,,2018-10-08,,,2019-06-16,,2019-06-16,2021-07-07 20:18:20.194,2021-07-07 20:18:20.194,
131,179,175,142,4,"6301791",35,612154102,SMA,Operaciones,Operación,WATTS OSORNO B,253310.000,PMGD,Libre,,EMPPRO113006000,25,"113006000",Panamericana Ruta 5 Sur km 921,-40.588689,-73.097314,BOLETA-OC-HES,indexacion,2021-10-01,2046-07-31,,165283.639,12.300,"",,,,,2019-12-12,2021-01-04,,2021-04-01,,2021-04-01,2021-07-13 10:32:35.391,2021-09-30 15:46:24.000,
252,16,5045469,141,5,"7703273",6,225006752,SMA,Operaciones,Operación,VIÑA BARON PHILIPPE DE ROTHSCHILD SAN JAVIER,133970.000,Netbilling,Regulado,,EMPPRO117002000,20,"117002000","Camino Constitución, km 16. San Javier de Loncomilla, VII región del Maule",-35.602698,-71.868491,BOLETA-FACTURA,regulado-netbilling,2022-04-02,2042-03-31,"140210-2",80043.301,12.300,Rancagua,,,,,2021-07-12,,,2022-03-02,,2022-03-02,2021-10-25 16:50:25.248,2021-10-25 16:50:25.248,
253,25,5039922,134,2,"100220",48,333387458,Huawei,Operaciones,Operación,GODREJ LOURDES,155520.000,Netbilling,Regulado,,EMPPRO126001000,20,"126001000",Lourdes #1170,-33.433119,-70.688529,BOLETA-FACTURA,regulado-netbilling,2022-09-26,2042-08-31,"100327-5",121362.659,10.000,Pudahuel,,,,,2021-06-10,,,2022-08-26,,2022-08-26,2021-10-25 16:50:25.377,2021-10-25 16:50:25.377,
255,25,5039924,133,2,"100220",48,333387458,Huawei,Operaciones,Operación,GODREJ ANDES,178200.000,Netbilling,Regulado,,EMPPRO126003000,20,"126003000",Andes 3801,-33.433119,-70.688529,BOLETA-FACTURA,regulado-netbilling,2022-10-10,2042-09-30,"144895-1",138791.001,10.000,Pudahuel,,,,,2021-06-10,,,2022-09-09,,2022-09-09,2021-10-25 16:50:25.385,2021-10-25 16:50:25.385,
257,187,5044832,143,1,"100204",46,803699745,Huawei,Operaciones,Operación,TRES SOLES BUEN RETIRO,150480.000,Netbilling,Regulado,,EMPPRO127001000,20,"127001000",Avenida Los Loros Carretera C-35 KM. 47,-27.825710,-70.125915,REPORTE,regulado-netbilling,2022-08-12,2042-07-31,"9361727",165328.119,12.300,Copiapó,,,,,2021-08-30,,,2022-07-12,,2022-07-12,2021-10-27 21:00:47.863,2021-10-27 21:00:47.863,
258,187,5044833,144,1,NE=33795165,46,800493276,FusionSolar,Operaciones,Operación,TRES SOLES LA PUERTA,201300.000,Netbilling,Regulado,,EMPPRO127002000,20,"127002000",Avenida Los Loros Carretera C-35 KM. 47,-27.808712,-70.127792,REPORTE,regulado-netbilling,2022-09-26,2042-08-31,"9361308",229236.967,12.300,Copiapó,,,,,2021-08-30,,,2022-08-23,,2022-08-23,2021-10-27 21:00:47.894,2021-10-27 21:00:47.894,
259,187,5044834,145,1,"100206",46,132106675,Huawei,Operaciones,Operación,TRES SOLES LOMA TURBINA,60060.000,Netbilling,Regulado,,EMPPRO127003000,20,"127003000",Avenida Los Loros Carretera C-35 KM. 47,-27.797353,-70.148056,REPORTE,regulado-netbilling,2022-08-12,2042-07-31,"9373178",55298.403,12.300,Copiapó,,,,,2021-08-30,,,2022-07-12,,2022-07-12,2021-10-27 21:00:47.917,2021-10-27 21:00:47.917,
260,187,5044835,146,1,"100196",46,753966413,Huawei,Operaciones,Operación,TRES SOLES PARRON VIEJO,60060.000,Netbilling,Regulado,,EMPPRO127004000,20,"127004000",Avenida Los Loros Carretera C-35 KM. 47,-27.796600,-70.145600,REPORTE,regulado-netbilling,2022-08-12,2042-07-31,"9155779",68203.058,12.300,Copiapó,,,,,2021-08-30,,,2022-07-12,,2022-07-12,2021-10-27 21:00:47.939,2021-10-27 21:00:47.939,
261,187,5044836,147,1,"100197",46,428506785,Huawei,Operaciones,Operación,TRES SOLES OFICINA CENTRAL,280500.000,Netbilling,Regulado,,EMPPRO127005000,20,"127005000",Avenida Los Loros Carretera C-35 KM. 47,-27.802400,-70.143100,REPORTE,regulado-netbilling,2022-08-12,2042-07-31,"9362114",321375.468,12.300,Copiapó,,,,,2021-08-30,,,2022-07-12,,2022-07-12,2021-10-27 21:00:47.961,2021-10-27 21:00:47.961,
266,188,5044831,152,2,"10423613",58,,SMA,Operaciones,Operación,MINDUGAR MACUL,364060.000,Netbilling,Regulado,,EMPPRO128001000,12,"128001000",Domingo Arteaga #276,-33.481146,-70.619800,BOLETA-FACTURA,regulado-netbilling,,2035-03-31,"171-6",417596.909,10.000,Macul,,,,,2021-09-20,,,2023-03-31,,2023-03-31,2022-01-05 21:00:46.476,2022-01-05 21:00:46.476,
267,28,5044825,153,2,"1171460",54,366778858,Sungrow,Operaciones,Operación,VOLVO QUILICURA,360180.000,Netbilling,Regulado,,EMPPRO129001000,15,"129001000",Panamericana Nte. N°8691,-33.350600,-70.705600,BOLETA-FACTURA,regulado-netbilling,2023-01-20,2037-12-31,"3083055-5",158168.901,13.000,Pudahuel,,,,,2021-09-29,,,2022-12-20,,2022-12-20,2022-01-10 15:00:14.504,2022-01-10 15:00:14.504,
268,32,5044828,154,1,"1180621",53,283514057,Sungrow,Operaciones,Operación,WILLIAM FEVRE PIRQUE,120000.000,Netbilling,Regulado,,EMPPRO130001000,20,"130001000",Av. Alcalde Hernán Prieto #3250,-33.671826,-70.582067,BOLETA-FACTURA,regulado-netbilling,2023-01-28,2042-12-31,"1365354",92898.811,10.000,San Bernardo,,,,,2021-11-18,,,2022-12-28,,2022-12-28,2022-01-11 21:00:51.685,2022-01-11 21:00:51.685,
269,25,5039923,155,2,"100220",48,333387458,Huawei,Operaciones,Operación,GODREJ VARGAS,244080.000,Netbilling,Regulado,,EMPPRO126002000,20,"126002000",Vargas Fontecilla 3830,-33.433119,-70.688529,BOLETA-FACTURA,regulado-netbilling,2022-10-10,2042-09-30,"144996-6",182598.209,10.000,Pudahuel,,,,,2021-06-10,,,2022-09-09,,2022-09-09,2022-01-24 04:47:28.863,2022-01-24 04:47:28.863,
399,190,5044829,163,2,"1167547",56,304350668,Sungrow,Operaciones,Operación,TOYOTA PUDAHUEL,360180.000,Netbilling,Regulado,,EMPPRO133001000,16,"133001000",Av. Américo Vespucio #098,-33.450600,-70.775800,BOLETA-FACTURA,regulado-netbilling,2023-01-27,2038-12-31,"317661-4",261488.813,13.000,Pudahuel,,,,,2022-01-31,,,2022-12-27,,2022-12-27,2022-04-25 15:09:51.847,2022-04-25 15:09:51.847,
400,201,188,158,1,"10464149",59,,SMA,Operaciones,Operación,WESTCHESTER MANDARINO,172220.000,Netbilling,Regulado,,EMPPRO131004000,15,"131004000",Sector Mallarauco ruta G812,-33.600000,-71.040000,BOLETA-FACTURA,regulado-netbilling,,,"6331622",162357.122,13.000,"",,,,,2022-01-28,,,2023-05-02,,2023-05-02,2022-04-28 20:39:27.965,2022-04-28 20:39:27.965,
401,201,5044826,160,1,"10432211",57,,SMA,Operaciones,Operación,WESTCHESTER MANZANO,41070.000,Netbilling,Regulado,,EMPPRO131001000,,"131001000",Santa Valentina S/N CJ Santa Valentina Fundo El Paraíso Parcela 39,-34.710000,-70.930000,BOLETA-FACTURA,regulado-netbilling,2023-05-01,2038-03-31,"6069840",47185.072,12.300,Rancagua,,,,,2022-01-28,,,2023-03-09,,2023-03-09,2022-04-28 20:59:27.911,2022-04-28 20:59:27.911,
402,201,5044827,156,1,"10475534",57,,SMA,Proyectos,Operación,WESTCHESTER NOGALES,119880.000,Netbilling,Regulado,,EMPPRO131002000,15,"131002000",Santa Valentina S/N CJ Santa Valentina Fundo El Paraíso,-34.710000,-70.930000,BOLETA-FACTURA,regulado-netbilling,,,"5952097",97616.222,12.300,"",,,,,2022-01-28,,,2023-05-04,,2023-05-04,2022-04-28 21:09:28.007,2022-04-28 21:09:28.007,
403,193,279,162,2,"10460738",60,,SMA,Proyectos,Operación,WINKLER LOS BOLDOS,152625.000,Netbilling,Regulado,,EMPPRO132003000,,"132003000",Los Boldos #457,-33.323746,-70.733706,BOLETA-FACTURA,regulado-netbilling,,,"2961611-6",99832.868,13.000,Lampa,,,,,2022-03-07,,,2023-05-30,2023-05-30,2023-05-30,2022-04-28 21:09:28.262,2022-04-28 21:09:28.262,
404,193,278,161,2,"10437593",60,,SMA,Proyectos,Operación,WINKLER EL QUILLAY,107460.000,Netbilling,Regulado,,EMPPRO132002000,15,"132002000",Quillay #466,-33.323746,-70.733706,BOLETA-FACTURA,regulado-netbilling,,,"1645044-8",78955.921,13.000,Lampa,,,,,2022-03-07,,,2023-05-30,2023-05-30,2023-05-30,2022-04-28 21:09:28.280,2022-04-28 21:09:28.280,
405,192,163,159,2,"10704624",61,,SMA,Proyectos,Operación,WINKLER NOVICIADO,139860.000,Netbilling,Regulado,,EMPPRO132001000,,"132001000",Camino Noviciado Lote B Parcela #35,-33.372557,-70.846080,BOLETA-FACTURA,regulado-netbilling,,,"2621356-8",124771.135,13.000,Lampa,,,,,2022-03-07,,,2023-05-30,2023-05-30,2023-05-30,2022-04-28 21:19:30.487,2022-04-28 21:19:30.487,
407,196,315,167,1,"1207856",71,,Sungrow,Operaciones,Operación,LOS VASCOS POBLACION,360000.000,Netbilling,Regulado,,EMPPRO134002000,,"134002000",Ruta I 50 S/N,-34.467750,-71.520889,BOLETA-FACTURA,regulado-netbilling,,,"3232624",,12.300,"",,,,,,2023-11-15,,2023-11-15,,2023-11-15,2022-07-21 16:49:18.398,2022-07-21 16:49:18.398,
408,196,314,166,1,"10699559",71,,SMA,Operaciones,Operación,LOS VASCOS RUTA 50,300000.000,Netbilling,Regulado,,EMPPRO134001000,,"134001000",Ruta I 50 S/N,-34.467987,-71.527526,BOLETA-FACTURA,regulado-netbilling,,,"4329958",,12.300,"",,,,,,2023-10-06,,2023-10-06,,2023-10-06,2022-07-21 16:49:18.410,2022-07-21 16:49:18.410,
412,194,256,171,1,"1242240",63,,Sungrow,Proyectos,Operación,VERFRUT LA CABAÑA,510400.000,PMGD,Libre,,EMPPRO135001000,20,"135001000",Sector La Cabaña el Peumo,-33.989990,-71.368892,BOLETA-FACTURA,indexacion,,2043-09-29,,392510.664,,"",,,,,2022-08-09,,,2023-09-29,,2023-09-29,2022-09-05 01:49:43.060,2022-09-05 01:49:43.060,
413,194,257,172,1,"1238495",63,,Sungrow,Proyectos,Operación,VERFRUT QUILAMUTA,1098900.000,PMGD,Libre,,EMPPRO135003000,20,"135003000",Fundo Quilamuta X,-34.071307,-71.283049,BOLETA-FACTURA,indexacion,,2043-09-14,,817014.110,,"",,,,,2022-08-09,,,2023-09-14,,2023-09-14,2022-09-05 01:49:43.238,2022-09-05 01:49:43.238,
417,206,20,82,1,NE=33791613,72,,FusionSolar,Proyectos,Operación,MARISTAS INSTITUTO SAN MARTIN,63270.000,Netbilling,Regulado,,EMPPRO110012000,,"110012000",Carmen 241,-34.988265,-71.238997,BOLETA-FACTURA,regulado-netbilling,,,"1718861",,12.300,"",,,,,,,,2023-11-23,,2023-11-23,2022-10-05 19:09:35.852,2022-10-05 19:09:35.852,
418,195,316,176,1,"100309",66,,Huawei,Proyectos,Operación,UNIFRUTTI REQUINOA,299700.000,Autoconsumo,Libre,,EMPPRO136002000,,"136002000",Carretera S/N KM99,-34.250000,-70.800000,BOLETA-OC-HES,indexacion,,,,,10.000,"",Etc/GMT+4,,,,,2023-11-20,,2023-11-13,,2023-11-20,2022-10-11 12:19:45.018,2022-10-11 12:19:45.018,
420,195,317,180,1,"1250068",66,,Sungrow,Proyectos,Operación,UNIFRUTTI LINDEROS,366300.000,Autoconsumo,Libre,,EMPPRO136003000,,"136003000","Longitudinal Sur Km 42, Paine",-33.789435,-70.749425,BOLETA-OC-HES,indexacion,,,,,10.000,"",,,,,,2023-11-27,,2023-11-27,,2023-11-27,2022-10-11 12:19:45.021,2022-10-11 12:19:45.021,
421,195,319,181,1,"1237895",62,,Sungrow,Operaciones,Operación,UNIFRUTTI TENO 2,504900.000,PMGD,Libre,,EMPPRO136005000,25,"136005000",Longitudinal Sur #2012,-34.810324,-71.052824,BOLETA-FACTURA,indexacion,,2048-09-29,,309555.485,10.000,"",,,,,2022-09-13,2023-09-29,,2023-09-13,,2023-09-29,2022-10-11 12:19:45.021,2022-10-11 12:19:45.021,
422,195,318,179,1,"1242483",62,,Sungrow,Operaciones,Operación,UNIFRUTTI TENO 1,603900.000,PMGD,Libre,,EMPPRO136004000,25,"136004000",Longitudinal Sur #2012,-34.800000,-71.050000,BOLETA-FACTURA,indexacion,,2048-09-29,,389365.988,10.000,"",,,,,2022-09-13,2023-09-29,,2023-09-21,,2023-09-29,2022-10-11 12:19:45.022,2022-10-11 12:19:45.022,
423,195,320,178,5,"1254393",64,,Sungrow,Proyectos,Operación,UNIFRUTTI LINARES 1,198690.000,Autoconsumo,Libre,,EMPPRO136006000,25,"136006000","Km 300, s/n, Linares (empalme Norte)",-35.821167,-71.642061,BOLETA-OC-HES,indexacion,,2048-11-22,,,10.000,"",,,,,2022-09-13,2023-11-22,,2023-11-23,,2023-11-22,2022-10-11 12:19:45.032,2022-10-11 12:19:45.032,
424,195,321,182,5,"1251675",64,,Sungrow,Proyectos,Operación,UNIFRUTTI LINARES 2,313020.000,Autoconsumo,Libre,,EMPPRO136007000,25,"136007000","Km 300 s/n, Linares (empalme sur)",-35.819723,-71.644007,BOLETA-OC-HES,indexacion,,2048-11-22,,,10.000,"",,,,,2022-09-13,2023-11-22,,2023-11-10,,2023-11-22,2022-10-17 12:19:46.026,2022-10-17 12:19:46.026,
428,214,11846803,190,13,"100337",76,,Huawei,Proyectos,Operación,SAN JOSE FARMS LA SEXTA,202400.000,Netbilling,Regulado,,EMPPRO137007000,,"137007000","Longaví, Maule",-36.144411,-71.607980,BOLETA-OC,regulado-netbilling,,,"357802-k",,,"",Etc/GMT+3,,,,,,,2024-03-28,,2024-03-28,2022-12-05 15:59:59.087,2022-12-05 15:59:59.087,
429,214,64,184,1,"100319",76,,Huawei,Operaciones,Operación,SAN JOSE FARMS SANTA ALEJANDRA,64900.000,Netbilling,Regulado,,EMPPRO137005000,,"137005000","Asentamiento Bartolillo s/n, Cabildo",-32.393059,-70.864731,BOLETA-OC,regulado-netbilling,,,"5789803",,,"",,,,,,2024-01-05,,2024-01-05,,2024-01-05,2022-12-05 16:00:03.610,2022-12-05 16:00:03.610,
430,300,11846132,189,13,"100342",76,,Huawei,Proyectos,Operación,SAN JOSE FARMS LA TERCERA,191400.000,Netbilling,Regulado,,EMPPRO137006000,,"137006000","Longaví, Maule",-36.052473,-71.649115,BOLETA-OC,regulado-netbilling,,,"133806-4",,,"",Etc/GMT+3,,,,,,,2024-04-26,,2024-04-26,2022-12-05 16:00:03.667,2022-12-05 16:00:03.667,
433,211,231,192,1,NE=46358798,74,,FusionSolar,Proyectos,Operación,VITAFOODS CHILLAN,600600.000,Autoconsumo,Libre,,EMPPRO138001000,,"138001000","CO a Coihueco S/N KM 4,5",-36.587901,-72.050329,BOLETA-OC-HES,indexacion,,,,,,"",,,,,,2024-04-12,,2024-04-12,,2024-04-12,2023-01-16 16:29:49.241,2023-01-16 16:29:49.241,
434,211,233,194,1,NE=36662724,67,,FusionSolar,Proyectos,Operación,VITAFOODS COLBUN,195800.000,Autoconsumo,Libre,,EMPPRO138003000,,"138003000","Bobadilla 12,8",-35.606079,-71.564544,BOLETA-OC-HES,indexacion,,,,,,"",,,,,,2024-01-08,,2024-01-08,,2024-01-08,2023-01-16 16:29:49.241,2023-01-16 16:29:49.241,
435,211,232,193,1,"100332",73,,Huawei,Proyectos,Operación,VITAFOODS MOLINA,266750.000,Autoconsumo,Libre,,EMPPRO138002000,,"138002000",Ruta 5 Sur #204,-35.093182,-71.316504,BOLETA-OC-HES,indexacion,,,,,,"",Etc/GMT+3,,,,,2024-02-07,,2024-02-07,,2024-02-07,2023-01-16 16:29:49.565,2023-01-16 16:29:49.565,
436,208,308,191,2,NE=33795365,68,,FusionSolar,Proyectos,Operación,COLEGIO MONTE TABOR Y NAZARET LO BARNECHEA,117660.000,Netbilling,Regulado,,EMPPRO139001000,,"139001000",AV. Paseo Pie Andino N°5894,-33.324824,-70.541476,BOLETA-FACTURA,regulado-netbilling,,2043-11-30,"1607462-4",82485.000,,Pudahuel,,,,,,2023-11-30,,2023-11-30,,2023-11-30,2023-01-16 16:29:57.037,2023-01-16 16:29:57.037,
455,212,325,195,1,NE=33807140,70,,FusionSolar,Proyectos,Operación,CORTEVA PAINE,405150.000,PMGD,Libre,,EMPPRO140001000,,"140001000","Gran Avenida José Miguel Carrera 1621, Paine, Región Metropolitana",-33.801606,-70.720033,BOLETA-OC,indexacion,,,,,,"",,,,,,2024-01-05,,2024-01-05,,2024-01-05,2023-01-23 12:59:42.011,2023-01-23 12:59:42.011,
457,216,5036605,215,5,NE=33856866,219,,FusionSolar,Operaciones,Operación,CENCOSUD EA LINARES,326895.000,Netbilling,Regulado,,EMPPRO180001000,,"180001000","Januario Espinoza S/N Dp S/N, Linares",-35.838496,-71.587587,BOLETA-FACTURA,regulado-netbilling,,,"53514 - 1",,,"",,,,,,,,2024-05-29,,2024-05-29,2023-01-23 13:20:00.744,2023-01-23 13:20:00.744,
459,215,5036618,221,1,NE=33830724,75,,FusionSolar,Operaciones,Operación,CENCOSUD SI LA SERENA GABRIELA MISTRAL,129870.000,Netbilling,Regulado,,EMPPRO180010000,,"180010000","Avenida Gabriela Mistral 3251, La Serena",-29.936342,-71.249388,BOLETA-FACTURA,regulado-autoconsumo,,,"5997752",,,"",,,,,,,,2024-04-22,,2024-04-22,2023-02-20 20:10:16.028,2023-02-20 20:10:16.028,
464,215,5038798,225,2,NE=33910808,75,,FusionSolar,Operaciones,Operación,CENCOSUD SI PUDAHUEL,199800.000,Netbilling,Regulado,,EMPPRO180019000,,"180019000",Isla Portezuelo 615 - Pudahuel - Santiago,-33.450012,-70.763314,BOLETA-FACTURA,regulado-netbilling,,,"2782587-7",,,"",,,,,,,,2024-06-27,,2024-06-27,2023-02-20 20:10:16.050,2023-02-20 20:10:16.050,
466,215,5036617,220,1,NE=33830708,75,,FusionSolar,Operaciones,Operación,CENCOSUD SI LA SERENA EL LIBERTADOR,176490.000,Netbilling,Regulado,,EMPPRO180009000,,"180009000",Cienfuegos 527 La Serena,-29.903938,-71.247640,BOLETA-FACTURA,regulado-autoconsumo,,,"2814390",,,"",,,,,,,,2024-04-09,,2024-04-09,2023-02-20 20:10:16.057,2023-02-20 20:10:16.057,
467,215,5038795,222,1,NE=33836832,75,,FusionSolar,Operaciones,Operación,CENCOSUD SI LA SERENA PANORAMICA,103240.000,Netbilling,Regulado,,EMPPRO180011000,,"180011000","Av Panoramica S/N Parc.304 La FLorida - Supermercado, La Serena",-29.916347,-71.210556,BOLETA-FACTURA,regulado-netbilling,,,"5610457",,,"",,,,,,,,2024-03-07,,2024-03-07,2023-02-20 20:10:16.028,2023-02-20 20:10:16.028,
468,215,5049330,226,1,NE=35773628,75,,FusionSolar,Proyectos,Operación,CENCOSUD SI TALCA,69930.000,Autoconsumo,Netbilling,,EMPPRO180026000,,"180026000","Av. Colin 0691 esq 27 Sur, Talca",-35.445503,-71.687698,BOLETA-FACTURA,regulado-autoconsumo,,,"5487128",,,"",,,,,,,,2025-04-03,,2025-04-03,2023-02-20 20:10:16.587,2023-02-20 20:10:16.587,
470,215,5038796,228,6,NE=33913180,75,,FusionSolar,Operaciones,Operación,CENCOSUD SI LIMACHE,77150.000,Netbilling,Regulado,,EMPPRO180014000,,"180014000",Av Urmeneta 430 Limache,-32.987388,-71.271818,BOLETA-FACTURA,regulado-netbilling,,,"533517 - 5",,,"",,,,,,,,2024-07-01,,2024-07-01,2023-02-20 20:10:16.621,2023-02-20 20:10:16.621,
471,215,5036615,227,6,NE=33833020,75,,FusionSolar,Operaciones,Operación,CENCOSUD JU SAN FELIPE,130425.000,Netbilling,Regulado,,EMPPRO180004000,,"180004000",AV Miraflores 2332,-32.750947,-70.707429,BOLETA-FACTURA,regulado-netbilling,,,"705741-5",,,"",,,,,,,,2024-06-14,,2024-06-14,2023-02-20 20:10:16.624,2023-02-20 20:10:16.624,
472,215,5038797,230,6,NE=33830110,75,,FusionSolar,Operaciones,Operación,CENCOSUD SI PEÑABLANCA,126500.000,Netbilling,Regulado,,EMPPRO180018000,,"180018000",Avenida Bernardo Leighton 71,-33.057412,-71.388665,BOLETA-FACTURA,regulado-netbilling,,,"646144-1",,,"",,,,,,,,2024-02-07,,2024-02-07,2023-02-20 20:10:16.751,2023-02-20 20:10:16.751,
473,215,5038799,231,6,NE=33830426,75,,FusionSolar,Operaciones,Operación,CENCOSUD SI QUILPUE BARRANCAS,114900.000,Netbilling,Regulado,,EMPPRO180023000,,"180023000",Los Barrancas 2464,-33.065788,-71.423406,BOLETA-FACTURA,regulado-netbilling,,,"692048-9",,,"",,,,,,,,2024-02-07,,2024-02-07,2023-02-20 20:10:16.751,2023-02-20 20:10:16.751,
475,215,5038800,236,6,NE=33831840,75,,FusionSolar,Operaciones,Operación,CENCOSUD SI QUILPUE LOS CARRERA,140000.000,Netbilling,Regulado,,EMPPRO180024000,,"180024000",Los carrera 811,-33.043300,-71.464639,BOLETA-FACTURA,regulado-netbilling,,,"689930-7",,,"",,,,,,,,2024-03-15,,2024-03-15,2023-02-20 20:10:16.752,2023-02-20 20:10:16.752,
482,215,5038801,238,6,NE=33968655,75,,FusionSolar,Operaciones,Operación,CENCOSUD SI VALPARAISO RIVEROS,42180.000,Netbilling,Regulado,,EMPPRO180029000,,"180029000","Almte. Riveros 17, Valparaíso",-33.036592,-71.631107,BOLETA-FACTURA,regulado-netbilling,,,"624910-8",,,"",,,,,,,,2024-10-24,,2024-10-24,2023-02-20 20:10:16.843,2023-02-20 20:10:16.843,
485,215,5036614,243,1,NE=33856630,75,,FusionSolar,Operaciones,Operación,CENCOSUD JU CHILLAN,174270.000,Netbilling,Regulado,,EMPPRO180003000,,"180003000",Las Baleares 1160 Supermercado Jumbo,-36.590923,-72.083129,BOLETA-FACTURA,regulado-autoconsumo,,,"5643062",,,"",,,,,,,,2024-07-23,,2024-07-23,2023-02-20 20:10:16.903,2023-02-20 20:10:16.903,
493,215,5036616,246,1,NE=33864872,75,,FusionSolar,Operaciones,Operación,CENCOSUD SI CONCEPCION,103230.000,Netbilling,Regulado,,EMPPRO180006000,,"180006000","Ramón Carrasco 52 Las Monjas, Concepción",-40.293332,-73.072083,BOLETA-FACTURA,regulado-autoconsumo,,,"5420024",,,"",,,,,,,,2024-05-24,,2024-05-24,2023-02-20 20:10:18.638,2023-02-20 20:10:18.638,
496,184,301,258,6,NE=33816520,38,,FusionSolar,Proyectos,Operación,CONCHA Y TORO CONO SUR EL ENCANTO SAN FELIPE,237600.000,Netbilling,Regulado,,EMPPRO119016000,,"119016000",Ruta E-777 km 8 Cono Sur Jahuel S/N,-32.720000,-70.620000,REPORTE,regulado-energia,,,,,,"",,,,,,,,2024-03-07,,2024-03-07,2023-03-16 14:49:47.184,2023-03-16 14:49:47.184,
497,1,337,260,1,NE=33843148,1,,FusionSolar,Proyectos,Operación,CONCHA Y TORO SAN JULIAN,118800.000,Netbilling,Regulado,,EMPPRO119021000,,"119021000","Estancia San Julian,Hijuela 2",-30.650000,-71.340000,REPORTE,regulado-energia,,,,,,"",,,,,,,,2024-04-08,,2024-04-08,2023-03-16 14:49:47.210,2023-03-16 14:49:47.210,
498,1,335,255,1,NE=33912942,1,,FusionSolar,Proyectos,Operación,CONCHA Y TORO EL TRAPICHE,94720.000,Netbilling,Regulado,,EMPPRO119019000,,"119019000","104,192",-30.620000,-71.300000,BOLETA-FACTURA,regulado-energia,,,,,,"",,,,,,,,2024-05-16,,2024-05-16,2023-03-16 14:49:47.213,2023-03-16 14:49:47.213,
499,184,300,259,1,"12636669",38,,SMA,Proyectos,Operación,CONCHA Y TORO CONO SUR LA ESPUELA SAN CLEMENTE,83200.000,Netbilling,Regulado,,EMPPRO119014000,,"119014000","Santa Elena S/N, Reserva 2 y 3, San clemente",-35.470000,-71.460000,REPORTE,regulado-energia,,,,,,"",,,,,,,,2024-03-26,,2024-03-26,2023-03-16 14:49:47.214,2023-03-16 14:49:47.214,
500,184,299,256,1,"10793837",38,,SMA,Proyectos,Operación,CONCHA Y TORO CONO SUR SANTA ELISA CHIMBARONGO,115200.000,Netbilling,Regulado,,EMPPRO119013000,,"119013000","Pisagua, fundo santa elisa, S/N, Chimbarongo",-34.717144,-71.033321,REPORTE,regulado-energia,,2043-08-31,"1600379",,,"",,,,,2022-08-09,,,2023-10-02,,2023-08-31,2023-03-16 14:49:47.219,2023-03-16 14:49:47.219,
501,1,336,261,1,"100312",1,,Huawei,Proyectos,Operación,CONCHA Y TORO QUEBRADA SECA,72600.000,Netbilling,Regulado,,EMPPRO119020000,,"119020000","Santa Cristina, S/N, Ovalle",-30.750000,-71.350000,BOLETA-FACTURA,regulado-energia,,,,,,"",,,,,,,,2024-03-07,,2024-03-07,2023-03-16 14:49:47.219,2023-03-16 14:49:47.219,
502,1,333,253,1,NE=33835298,1,,FusionSolar,Proyectos,Operación,CONCHA Y TORO LA GRANJA 1,116800.000,Netbilling,Regulado,,EMPPRO119017000,,"119017000",https://maps.app.goo.gl/ebCUjWWHGLeMRBFL9,-30.740000,-71.340000,BOLETA-FACTURA,regulado-energia,,,,,,"",,,,,,,,2024-03-21,,2024-03-21,2023-03-16 14:49:47.221,2023-03-16 14:49:47.221,
505,1,340,265,2,NE=33962869,1,,FusionSolar,Proyectos,Operación,CONCHA Y TORO VESPUCIO,404595.000,Autoconsumo,Libre,,EMPPRO119024000,,"119024000",Av. Américo Vespucio 2313,-33.392857,-70.770721,BOLETA-FACTURA,indexacion,,,,,,"",,,,,,,,2024-12-11,,2024-12-11,2023-04-12 15:09:46.592,2023-04-12 15:09:46.592,
506,1,338,263,1,NE=33899002,1,,FusionSolar,Proyectos,Operación,CONCHA Y TORO PIRQUE,839160.000,Autoconsumo,Libre,,EMPPRO119022000,,"119022000","Av. Virginia Subercaseaux 210, Pirque, Región Metropolitana",-33.635605,-70.576208,BOLETA-FACTURA,indexacion,,,,,,"",,,,,,,,2024-05-08,,2024-05-08,2023-04-12 15:09:46.592,2023-04-12 15:09:46.592,
507,1,339,266,1,NE=33826760,1,,FusionSolar,Proyectos,Operación,CONCHA Y TORO PUENTE ALTO,382950.000,Autoconsumo,Libre,,EMPPRO119023000,,"119023000","Av. Sta. Rosa #821, 8150215 Puente Alto, Región Metropolitana",-33.609030,-70.626239,BOLETA-FACTURA,indexacion,,,,,,"",,,,,,,,2024-02-23,,2024-02-23,2023-04-12 15:09:46.592,2023-04-12 15:09:46.592,
508,198,241,264,2,NE=33902374,78,,FusionSolar,Operaciones,Operación,TEVA MAIPU,1322560.000,PMGD,Libre,,EMPPRO190001000,20,"190001000",Camino a Melipilla 9978,-33.516960,-70.734273,BOLETA-FACTURA,indexacion,,2044-05-15,,,,"",,,,,,,,2024-05-15,,2024-05-15,2023-04-12 15:09:46.592,2023-04-12 15:09:46.592,
509,207,74,267,11,"100316",69,,Huawei,Operaciones,Operación,SAN JOSE FARMS VILKUN,400400.000,Autoconsumo,Libre,,EMPPRO170001000,,"170001000","General López km7, fundo Santa Elena",-38.738865,-72.360510,BOLETA-FACTURA,indexacion,,,,,,"",,,,,,2023-12-21,,2023-12-21,,2023-12-21,2023-05-08 16:59:52.120,2023-05-08 16:59:52.120,
510,213,293,268,2,NE=33812094,77,,FusionSolar,Operaciones,Operación,REIFOX RENCA,2002160.000,Autoconsumo,PMGD,,EMPPRO160001000,,"160001000",Avenida Renca 2210,-33.385357,-70.754655,BOLETA-FACTURA,indexacion,,,,,,"",,,,,,,,2024-03-21,,2024-03-21,2023-05-08 16:59:52.277,2023-05-08 16:59:52.277,
512,205,151,270,2,"100308",65,,Huawei,Operaciones,Operación,IFCO QUILICURA,436150.000,PMGD,Libre,,EMPPRO150001000,16,"150001000","Cam. Lo Echevers 230, Quilicura, Región Metropolitana",-33.380000,-70.750000,BOLETA-FACTURA,indexacion,2023-12-31,2039-10-31,,301129.680,,Pudahuel,,,,,2023-03-24,2023-10-31,,2023-10-31,,2023-10-31,2023-05-08 17:19:53.675,2023-05-08 17:19:53.675,
513,268,12133922,272,1,NE=36667364,,,FusionSolar,Proyectos,Operación,UCT LUIS RIVAS DEL CANTO,139500.000,Netbilling,Regulado,,EMPPRO200003000,,"200003000",Longitudinal Norte S/N,-38.698559,-72.546055,BOLETA-FACTURA,regulado-netbilling,,,"6073544",,,,,,,,,,,2025-08-18,,2025-08-18,2023-09-15 15:40:00.256,2023-09-15 15:40:00.256,
515,268,12133921,271,1,NE=41610298,,,FusionSolar,Proyectos,Operación,UCT JUAN PABLO II,106720.000,Netbilling,Regulado,,EMPPRO200002000,,"200002000",Rudecindo Ortega 02950,-38.700100,-72.546901,BOLETA-FACTURA,regulado-netbilling,,,"2712429",,,,,,,,,,,2025-10-27,,2025-10-27,2023-09-15 15:40:05.079,2023-09-15 15:40:05.079,
516,221,79,274,6,NE=33983896,218,,FusionSolar,Operaciones,Operación,TERMAQUIL QUILPUE,273060.000,Netbilling,Regulado,,EMPPRO202001000,,"202001000","Calle Marga N°4540, Quilpué, Región de Valparaíso",-33.070486,-71.410628,BOLETA-FACTURA,regulado-netbilling,,,"687450 - 9",,,,,,,,,,,2024-08-10,,2024-08-10,2023-11-06 18:29:54.666,2023-11-06 18:29:54.666,
517,217,345,276,5,NE=33874532,79,,FusionSolar,Operaciones,Operación,TUCAPEL LINARES,173160.000,Autoconsumo,Libre,,EMPPRO201001000,,"201001000","",-36.052750,-71.767779,BOLETA-FACTURA,indexacion,,,,,,,,,,,,,,2024-04-19,,2024-04-19,2023-11-06 18:29:54.667,2023-11-06 18:29:54.667,
535,210,,293,,NE=42254138,,,FusionSolar,Proyectos,Operación,CONSTRUMART CAMINO MELIPILLA,314360.000,Netbilling,,,EMPPRO206017000,,,"Cmo. a Melipilla 17050, Maipú, Región Metropolitana",-33.545135,-70.781817,,,,,,,,,,,,,,,,2025-11-14,,2025-11-14,2023-12-21 15:39:44.509,2023-12-21 15:39:44.509,
546,231,388,304,1,NE=35759658,227,,FusionSolar,Proyectos,Operación,COEXCA TALCA,1075080.000,Autoconsumo,Libre,,EMPPRO205001000,,"205001000","Longitudinal Sur Km. 259, Talca, Maule",-35.456801,-71.648329,BOLETA-FACTURA,indexacion,,,,,,,,,,,,,,2025-03-31,,2025-03-31,2023-12-21 20:47:42.496,2023-12-21 20:47:42.496,
548,225,361,308,2,NE=34098450,220,,FusionSolar,Operaciones,Operación,ARCOS DORADOS KENNEDY,39900.000,Netbilling,Regulado,,EMPPRO207001000,,"207001000",Avenida Presidente Kennedy 5055,-33.402448,-70.580783,BOLETA-FACTURA,regulado-netbilling,,,"1168837-3",,,,,,,,,,,2024-12-02,,2024-12-02,2023-12-26 20:12:57.581,2023-12-26 20:12:57.581,
578,226,251,336,11,NE=34630352,221,,FusionSolar,Proyectos,Operación,AGRICOLA QUINO ARANDANOS 1,110200.000,Netbilling,Regulado,,EMPPRO210001000,,"210001000","Fundo La Golondrina, Victoria, Región de la Araucanía",-38.336867,-72.492752,BOLETA-FACTURA,regulado-netbilling,,,"22063-2",,,,,,,,,,,2024-11-14,,2024-11-14,2024-01-23 12:08:13.876,2024-01-23 12:08:13.876,
579,226,252,337,11,NE=34579766,221,,FusionSolar,Proyectos,Operación,AGRICOLA QUINO AVELLANOS,279720.000,Netbilling,Regulado,,EMPPRO210002000,,"210002000","Predio La Golondrina, Victoria, Región de la Araucanía",-38.325310,-72.493711,BOLETA-FACTURA,regulado-netbilling,,,"12742-0",,,,,,,,,,,2025-01-21,,2025-01-21,2024-01-23 12:08:13.939,2024-01-23 12:08:13.939,
580,179,601130,338,12,NE=35712780,,,FusionSolar,Proyectos,Operación,WATTS LINARES 2,614120.000,Autoconsumo,Libre,,EMPPRO113007000,,"111007000","Longitudinal Sur, Km 302",-35.851935,-71.631553,BOLETA-OC-HES,indexacion,,,,,,,,,,,,,,2025-04-22,,2025-04-22,2024-01-23 12:17:25.297,2024-01-23 12:17:25.297,
583,229,265,341,12,NE=35452588,222,,FusionSolar,Proyectos,Operación,NEPTUNO TENO,165000.000,Carport,Libre,,EMPPRO208000000,,"208000000","Parcela 8 Lote B, El trebolar, Monterilla, Teno, Maule",-34.828860,-71.058738,BOLETA-FACTURA,indexacion,,,,,,,,,,,,,,2025-01-29,,2025-01-29,2024-01-23 16:07:40.135,2024-01-23 16:07:40.135,
584,235,608270,342,14,NE=35955232,226,,FusionSolar,Proyectos,Operación,AGRÍCOLA ESMERALDA TENO,360000.000,Netbilling,Regulado,,EMPPRO209001000,,"209001000",La Esmeralda Esq. Ruta J-115,-34.831448,-71.063378,BOLETA-FACTURA,regulado-netbilling,,,"18636",,,,,,,,,,,2025-04-28,,2025-04-28,2024-01-23 16:07:40.228,2024-01-23 16:07:40.228,
588,2,381,346,2,"14887495",2,,SMA,Proyectos,Operación,AIRBUS TOBALABA EXPANSION,184815.000,Netbilling,Regulado,,EMPPRO116002000,18,"116002000","Av. Alcalde Fernando Castillo Velasco 7941, Aerodromo Eulogio Sanchez Errazuriz",-33.456849,-70.548685,BOLETA-FACTURA,regulado-netbilling,,2043-01-17,"3324881-4",,,Pudahuel,,,,,,,,2025-01-17,,2025-01-17,2024-01-26 15:48:06.976,2024-01-26 15:48:06.976,
604,1,334,257,1,"100307",1,,Huawei,Proyectos,Operación,CONCHA Y TORO LA GRANJA 2,117000.000,Netbilling,Regulado,,EMPPRO119018000,,"119018000","Fundo La Granja, S/N, Peumo",-30.750000,-71.350000,REPORTE,regulado-energia,,,,,,,,,,,,,,2024-03-21,,2024-03-21,2024-03-12 20:28:01.295,2024-03-12 20:28:01.295,
6665,225,362,348,2,NE=35285128,220,,FusionSolar,Operaciones,Operación,ARCOS DORADOS INDEPENDENCIA,38900.000,Netbilling,Regulado,,EMPPRO207002000,,"207002000",Avenida Independencia 864,-33.420937,-70.656113,BOLETA-FACTURA,regulado-netbilling,,,"438720-1",,,,,,,,,,,2024-12-10,,2024-12-10,2024-04-03 20:27:06.883,2024-04-03 20:27:06.883,
6669,234,5049977,6544,15,NE=35852824,225,,FusionSolar,Proyectos,Operación,VIÑA MATETIC TURISMO EL ROSARIO,69440.000,Netbilling,Regulado,,EMPPRO215001000,,"215001000","Paso rosario, cartagena valparaiso",-33.476556,-71.477276,BOLETA-FACTURA,regulado-netbilling,,,,,,,,,,,,,,2025-07-10,,2025-07-10,2024-05-10 16:26:51.492,2024-05-10 16:26:51.492,
6671,265,14817418,6427,6,NE=36833808,,,FusionSolar,Proyectos,Operación,AVOAMERICA OFICINAS,399400.000,Netbilling,Regulado,,EMPPRO216003000,15,"216003000","Fundo El Cardonal S/N, Santo Domingo",-33.678128,-71.626410,BOLETA-FACTURA,regulado-netbilling,,2040-08-08,"756844-4",,,,,,,,2024-05-30,,,2025-08-08,,2025-08-08,2024-06-18 15:58:04.687,2024-06-18 15:58:04.687,
6677,1,,6433,1,NE=41446194,,,FusionSolar,Proyectos,Operación,CONCHA Y TORO LONTUE 2,450000.000,Autoconsumo,Libre,,EMPPRO119025000,,"119025000",Fundo San Ignacio S/N,-35.063472,-71.271976,BOLETA-FACTURA,indexacion,,,,,,,,,,,,,,2025-10-16,,2025-10-16,2024-06-18 17:38:05.633,2024-06-18 17:38:05.633,
6681,233,276,6438,6,NE=35740082,230,,FusionSolar,Proyectos,Operación,SANTA BLANCA LONGAVI,508400.000,Autoconsumo,,,EMPPRO218002000,,"218002000","Parcela 27 N°20 Villa Proyecto Parcelación, Longaví.",-35.940143,-71.719529,BOLETA-FACTURA,indexacion,,,,,,,,,,,,,,2025-04-02,,2025-04-02,2024-06-25 17:18:22.319,2024-06-25 17:18:22.319,
6682,233,277,6439,6,NE=35657138,228,,FusionSolar,Proyectos,Operación,SANTA BLANCA SAN JOSE,453000.000,Autoconsumo,,,EMPPRO218003000,,"218003000","PARCELA 7, TRAYECTO CIRUELOS S/N, MARIQUINA",-39.537500,-72.842739,BOLETA-FACTURA,indexacion,,,,,,,,,,,,,,2025-03-26,,2025-03-26,2024-06-25 17:18:22.477,2024-06-25 17:18:22.477,
6683,233,275,6437,,NE=36541160,229,,FusionSolar,Proyectos,Operación,SANTA BLANCA CONSTITUCION,600780.000,Autoconsumo,,,EMPPRO218001000,,"218001000",SECTOR PAILIMO S/N CRT FORESTAL ECO SUR S.A. MARCHIGUE,-35.392668,-72.373346,BOLETA-FACTURA,indexacion,,,,,,,,,,,,,,2025-06-17,,2025-06-17,2024-06-25 17:18:22.505,2024-06-25 17:18:22.505,
6684,230,5625097,6440,1,NE=35476256,,,FusionSolar,Proyectos,Operación,SEMBRADOR COQUIMBO,403000.000,Netbilling,Regulado,,EMPPRO219001000,25,"219001000","Fdo Martinez Lote 2 D Tres, Coquimbo",-30.117275,-71.208824,BOLETA-FACTURA,regulado-netbilling,,,"6233283",,,,,,,,,,,2025-03-28,,2025-03-28,2024-07-01 16:47:50.666,2024-07-01 16:47:50.666,
6686,195,,6445,,NE=42021000,,,FusionSolar,Proyectos,Operación,UNIFRUTTI LA QUISCA,399000.000,Netbilling,,,EMPPRO136014000,,,"PAINE, AV DIECIOCHO DE SEPTIEMBRE
1448",-33.806767,-70.722041,,,,,,,,,,,,,,,,2025-11-21,,2025-11-21,2024-07-24 15:37:07.787,2024-07-24 15:37:07.787,
6688,195,5044830,6443,1,NE=35424968,,,FusionSolar,Proyectos,Operación,UNIFRUTTI EL CANELO,314360.000,Netbilling,Netbilling,,EMPPRO136008000,,"136008000","PAINE, EL TRANSITO 83",-33.787505,-70.669194,BOLETA-FACTURA,regulado-netbilling,,,"6781287",,,,,,,,,,,2025-05-15,,2025-05-15,2024-07-24 15:38:20.339,2024-07-24 15:38:20.339,
6693,227,302,6450,1,NE=35613900,223,,FusionSolar,Proyectos,Operación,VIÑA SANTA RITA BUIN,708760.000,Autoconsumo,,,EMPPRO214001000,,"214001000","BUIN, SIN CALLE S/N CRT",-33.719543,-70.670453,BOLETA-OC,indexacion,,,,,,,,,,,,,,2025-01-16,,2025-01-16,2024-08-14 13:18:25.911,2024-08-14 13:18:25.911,
6696,226,253,6454,11,NE=34630366,221,,FusionSolar,Proyectos,Operación,AGRICOLA QUINO ARANDANOS 2,42920.000,Netbilling,Regulado,,EMPPRO210003000,,"210003000","Fundo La Golondrina, Victoria, Región de la Araucanía",-38.336867,-72.492752,BOLETA-FACTURA,regulado-netbilling,,,"12139-1",,,,,,,,,,,2024-11-14,,2024-11-14,2024-10-28 13:04:02.113,2024-10-28 13:04:02.113,
6703,211,2458069,6461,12,[D]NE=36662724,,,FusionSolar,Proyectos,Operación,VITAFOODS COLBUN EXPANSIÓN,273760.000,Autoconsumo,Autoconsumo,,EMPPRO138004000,,"138004000","Bobadilla 12,8",-35.606079,-71.564544,BOLETA-OC-HES,indexacion,,,,,,,,,,,,,,2025-06-18,,2025-06-18,2024-11-13 19:55:15.288,2024-11-13 19:55:15.288,
6704,179,12150168,6462,5,"4420493",,,SMA,Proyectos,Operación,WATTS LINARES 1 EXPANSION,459420.000,Autoconsumo,Libre,,EMPPRO111010000,,"111010000",LONGITUDINAL SUR KM 302,-35.851781,-71.629426,BOLETA-OC-HES,indexacion,,,,,,,,,,,,,,2025-09-30,,2025-09-30,2024-11-13 19:55:15.417,2024-11-13 19:55:15.417,
6707,225,5049978,6465,2,NE=35575444,220,,FusionSolar,Proyectos,Operación,Arcos Dorados La Dehesa,14500.000,Regulado,Netbilling,,EMPPRO207006000,,"207006000",Avenida La Dehesa 1987,-33.354136,-70.517644,BOLETA-FACTURA,regulado-netbilling,,,"2960255-7",,,,,,,,,,,2025-06-19,,2025-06-19,2024-12-09 13:05:59.739,2024-12-09 13:05:59.739,
6709,225,,6467,1,NE=35803624,220,,FusionSolar,Proyectos,Operación,ARCOS DORADOS TALCA (AV. COLIN),11600.000,Netbilling,Regulado,,EMPPRO207009000,,"207009000",,-35.444362,-71.686273,BOLETA-FACTURA,regulado-netbilling,,,"6655364",,,,,,,,,,,2025-09-26,,2025-09-26,2024-12-09 13:06:00.040,2024-12-09 13:06:00.040,
6714,264,14940163,6475,,NE=41773042,,,FusionSolar,Proyectos,Operación,SANTA CAROLINA CASABLANCA,177660.000,Netbilling,Regulado,,EMPPRO224001000,,"224001000","La Rotunda S / N,  Casablanca",-33.293134,-71.418366,BOLETA-FACTURA,regulado-netbilling,,,"450-2",,,,,,,,,,,2025-09-29,,2025-09-29,2025-03-28 13:25:31.950,2025-03-28 13:25:31.950,
6717,254,5136480,6489,6,NE=35498088,,,FusionSolar,Proyectos,Operación,AGROPAL HIJUELAS,299700.000,Netbilling,Regulado Autoconsumo,,S01PRO101001000,,"101001001","",-32.819100,-71.127300,BOLETA-FACTURA,regulado-autoconsumo,,,,,,,,,,,,,,2025-09-10,,2025-04-01,2025-05-09 15:06:26.915,2025-05-09 15:06:26.915,
6718,254,5137135,6490,1,NE=35460900,,,FusionSolar,Proyectos,Operación,AGROPAL OVALLE 2,419580.000,Netbilling,Regulado,,S01PRO101002000,,"101002","",-30.528900,-71.169800,BOLETA-FACTURA,regulado-autoconsumo,,,"6087978",,,,,,,,,,,2025-07-25,,2025-04-01,2025-05-09 15:06:26.923,2025-05-09 15:06:26.923,
6719,254,5137136,6491,1,NE=35423296,,,FusionSolar,Proyectos,Operación,AGROPAL OVALLE 1,419580.000,Netbilling,Regulado,,S01PRO101003000,,"101003","",-30.519900,-71.158300,BOLETA-FACTURA,regulado-autoconsumo,,,"5940160",,,,,,,,,,,2025-07-25,,2025-04-01,2025-05-09 15:06:26.929,2025-05-09 15:06:26.929,
6721,257,5131263,6493,1,"9d4a361d-a98a-463c-af0a-a1a4113a5a82",,,Fronius,Proyectos,Operación,SANTA ROSARIO BUIN,134000.000,Netbilling,Netbilling,,S01PRO103001000,,"103001",Ruta G-46 S/N,-33.781000,-70.767100,BOLETA-FACTURA,regulado-autoconsumo,,,,,,,,,,,,,,2025-06-19,,2025-04-01,2025-05-09 15:06:26.939,2025-05-09 15:06:26.939,
6723,250,5137791,6495,6,NE=33975860,,,FusionSolar,Proyectos,Operación,AGRIFRUT LLAY LLAY LAS PEÑAS,288000.000,Netbilling,Regulado,,S01PRO105001000,,"105001","",-32.868500,-70.920900,BOLETA-FACTURA,regulado-energia,,,"940992-0",,,,,,,,,,,2025-07-28,,2025-04-01,2025-05-09 15:06:26.949,2025-05-09 15:06:26.949,
6724,250,5137792,6496,6,NE=35622068,,,FusionSolar,Proyectos,Operación,AGRIFRUT LLAY LLAY PARCELA 19,432000.000,Netbilling,Regulado,,S01PRO105002000,,"105002","",-32.871700,-70.945100,BOLETA-FACTURA,regulado-energia,,,"426674-9",,,,,,,,,,,2025-07-23,,2025-04-01,2025-05-09 15:06:26.954,2025-05-09 15:06:26.954,
6725,258,5138452,6497,12,NE=36440210,,,FusionSolar,Proyectos,Operación,LOS AZULES OVALLE,414000.000,Leasing,Libre,,EMPADM114000000,,"114000000","",-30.640800,-71.132800,BOLETA-FACTURA,leasing,,,,,,,,,,,,,,2025-11-18,,2025-04-01,2025-05-09 15:06:27.951,2025-05-09 15:06:27.951,
6726,241,5138453,6498,2,NE=33743428,,,FusionSolar,Proyectos,Operación,ISTRIA LAMPA,154100.000,Regulado,,,S01PRO107001000,,"107001","",-33.307800,-70.732400,BOLETA-FACTURA,regulado-netbilling,,,"3035296-3",,,,,,,,,,,2025-09-25,,2025-04-01,2025-05-09 15:06:28.177,2025-05-09 15:06:28.177,
6727,251,5135827,6499,1,a2aae7d3-d1e7-4fa9-86e3-2dce80e720dc,,,Fronius,Proyectos,Operación,AGROVALLENAR CAMARONES,102600.000,Netbilling,Regulado,,S01PRO108001000,,"108001","",-28.667000,-70.667000,BOLETA-FACTURA,regulado-energia,,,"6196578",,,,,,,,,,,2025-07-10,,2025-04-01,2025-05-09 15:06:28.182,2025-05-09 15:06:28.182,
6729,255,5138451,6501,1,"77601375-4871-457f-8703-8307e2160a38",,,Fronius,Proyectos,Operación,LOS BOLDOS REQUINOA,181500.000,Netbilling,Regulado,,S01PRO110001000,,"110001","",-34.300600,-70.816300,BOLETA-FACTURA,regulado-autoconsumo,,,"1553038",,,,,,,,,,,2025-10-01,,2025-04-01,2025-05-09 15:06:28.206,2025-05-09 15:06:28.206,
6730,240,611847,6509,6,NE=33912170,,,FusionSolar,Proyectos,Operación,LOS ALPES PUTAENDO IGLESIA,409500.000,Netbilling,Regulado,,EMPPRO230001000,,"230001000",Ruta C74F+H2C S/N,-32.593500,-70.726200,BOLETA-FACTURA,regulado-energia,,,,,,,,,,,,,,2025-06-16,,2025-04-01,2025-05-09 15:06:28.412,2025-05-09 15:06:28.412,
6731,240,680082,6510,6,NE=33754160,,,FusionSolar,Proyectos,Operación,LOS ALPES PUTAENDO RIO,408700.000,Netbilling,Regulado,,EMPPRO230002000,,"230002000",Ruta C74F+H2C S/N,-32.544200,-70.675700,BOLETA-FACTURA,regulado-energia,,,,,,,,,,,,,,2025-06-17,,2025-04-01,2025-05-09 15:06:28.417,2025-05-09 15:06:28.417,
6733,244,680087,6512,1,b12ea1c1-2bc5-4f75-848c-159be9d521df,,,Fronius,Proyectos,Operación,MALLARAUCO MELIPILLA,252000.000,Netbilling,Regulado,,EMPPRO231001000,,"231001000","",-33.574800,-71.001400,BOLETA-FACTURA,regulado-energia,,,,,,,,,,,,,,2025-07-18,,2025-04-01,2025-05-09 15:06:28.428,2025-05-09 15:06:28.428,
6734,239,611848,6513,6,NE=33794751,,,FusionSolar,Proyectos,Operación,CABRINI SAN FELIPE,383040.000,Netbilling,Regulado,,EMPPRO232001000,,"232001000",El Rincón S/N,-32.802500,-70.670300,BOLETA-FACTURA,regulado-energia,,,,,,,,,,,,,,2025-07-04,,2025-04-01,2025-05-09 15:06:28.433,2025-05-09 15:06:28.433,
6737,252,680098,6516,1,c1b7e05b-cd47-4d52-82d4-3442323b00c5,,,Fronius,Proyectos,Operación,INIA VICUÑA,173280.000,Netbilling,Regulado,,EMPPRO235001000,,"235001000","",-30.038500,-70.691300,BOLETA-FACTURA,regulado-energia,,,,,,,,,,,,,,2025-07-04,,2025-04-01,2025-05-09 15:06:28.449,2025-05-09 15:06:28.449,
6738,246,680095,6517,,NE=35187258,,,FusionSolar,Proyectos,Operación,LOS NOGALES VICUÑA,139860.000,Leasing,Regulado,,EMPPRO236001000,,"236001000","",-30.015800,-70.981600,BOLETA-FACTURA,leasing,,,,,,,,,,,,,,2025-07-14,,2025-04-01,2025-05-09 15:06:28.454,2025-05-09 15:06:28.454,
6740,247,680096,6519,6,"43d28b22-cf21-4127-806d-7090490fbad3",,,Fronius,Proyectos,Operación,UNDURRAGA LEYDA,355200.000,Netbilling,Regulado,,EMPPRO238001000,,"238001000",Leyda S/N San Antonio,-33.637000,-71.481570,BOLETA-FACTURA,regulado-energia,,,,,,,,,,,,,,2025-06-27,,2025-04-01,2025-05-09 15:06:28.464,2025-05-09 15:06:28.464,
6742,194,680085,6502,1,c8eec934-6611-4c6b-8454-8cf5531a3726,,,Fronius,Proyectos,Operación,VERFRUT COMBARBALA,236000.000,Netbilling,Regulado,,EMPPRO135004000,,"135004000",Ruta D-55 S/N,-31.134700,-71.033700,BOLETA-FACTURA,regulado-autoconsumo,,,,,,,,,,,,,,2025-06-20,,2025-04-01,2025-05-09 15:06:38.275,2025-05-09 15:06:38.275,
6743,194,680088,6503,1,NE=33971291,,,FusionSolar,Proyectos,Operación,VERFRUT COMBARBALA EXPANSION,165680.000,Netbilling,,,EMPPRO135005000,,"135005000",Ruta D-55 S/N,-31.135300,-71.034700,BOLETA-FACTURA,regulado-energia,,,,,,,,,,,,,,2025-06-21,,2025-04-01,2025-05-09 15:06:38.477,2025-05-09 15:06:38.477,
6750,253,5137134,6488,1,NE=34858328,,,FusionSolar,Proyectos,Operación,POTRERO GRANDE CURICO,259200.000,Netbilling,Regulado,,S01PRO102001000,,"102001","",-35.237000,-71.063500,BOLETA-FACTURA,regulado-energia,,,,,,,,,,,,,,2025-08-29,,2025-04-01,2025-05-09 20:04:29.234,2025-05-09 20:04:29.234,
6751,249,5137793,6487,1,NE=35301668,,,FusionSolar,Proyectos,Operación,LOS CULENES PUMANQUE,416640.000,Netbilling,Regulado,,S01PRO104001,,"104001","",-34.586100,-71.599100,BOLETA-FACTURA,regulado-netbilling,,,"4160928",,,,,,,,,,,2025-08-15,,2025-04-01,2025-05-09 20:04:29.268,2025-05-09 20:04:29.268,
6752,256,5049329,6485,1,"8eb7f311-cd32-4ecd-b276-46bb52a79365",,,Fronius,Proyectos,Operación,PANAMA SANTA CRUZ,284400.000,Netbilling,Netbilling,,S01PRO109001000,,"109001",Ruta 7HV5+RW7,-34.705400,-71.440200,BOLETA-FACTURA,regulado-autoconsumo,,,,,,,,,,,,,,2025-06-20,,2025-04-01,2025-05-09 20:04:29.360,2025-05-09 20:04:29.360,
6753,194,680089,6479,1,"100185",,,Huawei,Proyectos,Operación,VERFRUT LAS CABRAS PORVENIR 1,432000.000,Netbilling,,,EMPPRO135006000,,"135006000",Ruta VJR6+MCW,-34.108400,-71.388900,BOLETA-FACTURA,regulado-energia,,,,,,,,,,,,,,2025-06-20,,2025-04-01,2025-05-09 20:04:29.395,2025-05-09 20:04:29.395,
6754,194,680090,6480,1,"100156",,,Huawei,Proyectos,Operación,VERFRUT LAS CABRAS PORVENIR 2,432000.000,Netbilling,Regulado,,EMPPRO135007000,,"135007000",Ruta VJR6+MCW,-34.092400,-71.390400,BOLETA-FACTURA,regulado-energia,,,"3005178",,,,,,,,,,,2025-06-28,,2025-04-01,2025-05-09 20:04:29.401,2025-05-09 20:04:29.401,
6755,194,680091,6483,1,"100176",,,Huawei,Proyectos,Operación,VERFRUT LAS CABRAS EL DURAZNO,432000.000,Netbilling,Regulado,,EMPPRO135008000,,"135008000",Ruta RMHV+55P,-34.172500,-71.308600,BOLETA-FACTURA,regulado-energia,,,,,,,,,,,,,,2025-06-19,,2025-04-01,2025-05-09 20:04:29.430,2025-05-09 20:04:29.430,
6756,194,680092,6486,1,"2afeb2b9-7bfa-44ca-ae0a-78d8fcdc4d47",,,Fronius,Proyectos,Operación,VERFRUT RANCAGUA LOS LIRIOS,160200.000,Netbilling,Regulado,,EMPPRO135009000,,"135009000","",-34.211900,-70.773300,BOLETA-FACTURA,regulado-energia,,,,,,,,,,,,,,2025-09-11,,2025-04-01,2025-05-09 20:04:29.477,2025-05-09 20:04:29.477,
6757,194,680093,6484,1,"100163",,,Huawei,Proyectos,Operación,VERFRUT MOLINA,432000.000,Netbilling,,,EMPPRO135010000,,"135010000",Ruta G-680 S/N,-33.981100,-71.348300,BOLETA-FACTURA,regulado-energia,,,,,,,,,,,,,,2025-06-20,,2025-04-01,2025-05-09 20:04:29.483,2025-05-09 20:04:29.483,
6758,243,680086,6482,1,"100172",,,Huawei,Proyectos,Operación,SANTA MARTA PAINE,432000.000,Netbilling,Regulado,,EMPPRO234001000,,"234001000","",-33.856800,-70.649900,BOLETA-FACTURA,regulado-energia,,,,,,,,,,,,,,2025-07-18,,2025-04-01,2025-05-09 20:04:29.770,2025-05-09 20:04:29.770,
6759,245,680094,6481,1,ef7de0fb-f8bf-4860-9cd2-ab7cfb4ee5e5,,,Fronius,Proyectos,Operación,CARVAJAL Y SALINAS MONTE PATRIA,365940.000,Netbilling,Regulado,,EMPPRO237001000,,"237001000","",-30.757100,-70.740800,BOLETA-FACTURA,regulado-autoconsumo,,,,,,,,,,,,,,2025-10-01,,2025-04-01,2025-05-09 20:04:29.794,2025-05-09 20:04:29.794,
6760,247,680097,6478,,a75612bf-9d8c-4099-a785-3169575f5e04,,,Fronius,Proyectos,Operación,UNDURRAGA TALAGANTE,602640.000,Autoconsumo,Libre,,EMPPRO238002000,,"238002000",Camino a Melipilla 34,-33.646400,-70.885200,BOLETA-FACTURA,indexacion,,,,,,,,,,,,,,2025-06-20,,2025-04-01,2025-05-09 20:04:29.817,2025-05-09 20:04:29.817,
6762,238,5046745,6521,12,NE=33902896,,,FusionSolar,Proyectos,Operación,FRIGORENT PARCELA 20,149600.000,Autoconsumo,Netbilling,,EMPPRO225001000,,"225001000",EL Villorrio Agrícola 20,-33.599971,-70.784149,BOLETA-FACTURA,indexacion,,,,,,,,,,,,,,2025-07-07,,2025-07-07,2025-05-13 19:36:08.597,2025-05-13 19:36:08.597,
6782,,,6540,,NE=42565328,,,FusionSolar,Proyectos,Operación,WALMART SALAMANCA,130000.000,NETBILLING,,,,,,BRUNO LARRAIN 340 WALMART CHILE INM. S.A. SALAMANCA,-31.781411,-70.961858,,,,,,,,,,,,,,,,2025-11-18,,2025-11-18,2025-06-05 00:58:19.966,2025-06-05 00:58:19.966,
6783,,,6536,,NE=43191426,,,FusionSolar,Proyectos,Operación,WALMART MULCHEN,110000.000,NETBILLING,,,,,,"Pantoja 185, Mulchen",-37.722816,-72.239716,,,,,,,,,,,,,,,,2025-10-27,,2025-10-27,2025-06-05 00:58:20.098,2025-06-05 00:58:20.098,
6784,179,2459130,6542,12,"6313429",,,SMA,Proyectos,Operación,WATTS CHILLAN EXPANSION,148800.000,Autoconsumo,Autoconsumo,,EMPPRO113009000,,"113009000",Longitudinal sur 01077,-36.587341,-72.104458,BOLETA-FACTURA,indexacion,,,,,,,,,,,,,,2025-05-30,,2025-05-30,2025-06-05 00:58:23.735,2025-06-05 00:58:23.735,
6799,225,,6549,1,NE=36971226,,,FusionSolar,Operaciones,Operación,ARCOS DORADOS TALCA UNO NORTE,11600.000,Netbilling,Regulado,,EMPPRO207010000,,"207010000","Calle 1 Nte. 1272, Talca, Maule",-35.426664,-71.658559,BOLETA-FACTURA,regulado-netbilling,,,"1797489",,,,,,,,,,,2025-08-19,,2025-08-19,2025-07-23 21:21:55.075,2025-07-23 21:21:55.075,
